{"type":"FeatureCollection","features":[{"type":"Feature","properties":{"name":"Utica Mills Covered Bridge","Address":"Utica Road, over Fishing Creek","year":1890,"source_url":"https://www.visitfrederick.org/things-to-do/covered-bridges/"},"geometry":{"type":"Point","coordinates":[-77.39761,39.5252]}},{"type":"Feature","properties":{"name":"Loy's Station Covered Bridge","Address":"Old Frederick Road, over Owens Creek","year":1885,"source_url":"https://www.visitfrederick.org/things-to-do/covered-bridges/"},"geometry":{"type":"Point","coordinates":[-77.3514,39.60871]}},{"type":"Feature","properties":{"name":"Roddy Road Covered Bridge","Address":"Roddy Road, over Owens Creek","year":1892,"source_url":"https://www.visitfrederick.org/things-to-do/covered-bridges/"},"geometry":{"type":"Point","coordinates":[-77.39373,39.64088]}}]}
