{"type":"FeatureCollection","features":[{"type":"Feature","properties":{"name":"Brown Family Cemetery No 1","PlaceName":"Foxville"},"geometry":{"type":"Point","coordinates":[-77.49609,39.67389]}},{"type":"Feature","properties":{"name":"Mt Zion Methodist Church","PlaceName":"Foxville"},"geometry":{"type":"Point","coordinates":[-77.49917,39.67197]}},{"type":"Feature","properties":{"name":"Pleasant Valley United Brethren Church","PlaceName":"Foxville"},"geometry":{"type":"Point","coordinates":[-77.53536,39.6383]}},{"type":"Feature","properties":{"name":"Mt. Moriah Lutheran Church","PlaceName":"Foxville"},"geometry":{"type":"Point","coordinates":[-77.4963,39.64784]}},{"type":"Feature","properties":{"name":"Toms Family Cemetery","PlaceName":"Foxville"},"geometry":{"type":"Point","coordinates":[-77.49979,39.62866]}},{"type":"Feature","properties":{"name":"Mt Bethel Methodist Church","PlaceName":"Garfield"},"geometry":{"type":"Point","coordinates":[-77.51253,39.62048]}},{"type":"Feature","properties":{"name":"United Brethren Church","PlaceName":"Garfield"},"geometry":{"type":"Point","coordinates":[-77.51954,39.60784]}},{"type":"Feature","properties":{"name":"Draper Family Cemetery","PlaceName":"Garfield"},"geometry":{"type":"Point","coordinates":[-77.52316,39.59259]}},{"type":"Feature","properties":{"name":"Brandenburg Family Cemetery","PlaceName":"Wolfsville"},"geometry":{"type":"Point","coordinates":[-77.54472,39.59542]}},{"type":"Feature","properties":{"name":"United Brethren Cemetery","PlaceName":"Wolfsville"},"geometry":{"type":"Point","coordinates":[-77.54117,39.58164]}},{"type":"Feature","properties":{"name":"Lutheran Church","PlaceName":"Wolfsville"},"geometry":{"type":"Point","coordinates":[-77.55753,39.58292]}},{"type":"Feature","properties":{"name":"Reformed Cemetery","PlaceName":"Wolfsville"},"geometry":{"type":"Point","coordinates":[-77.55624,39.57724]}},{"type":"Feature","properties":{"name":"United Brethren Church","PlaceName":"Pleasant Walk"},"geometry":{"type":"Point","coordinates":[-77.58619,39.54275]}},{"type":"Feature","properties":{"name":"Jerusalem Cemetery","PlaceName":"Jerusalem"},"geometry":{"type":"Point","coordinates":[-77.57958,39.5236]}},{"type":"Feature","properties":{"name":"United Brethren Cemetery","PlaceName":"Myersville"},"geometry":{"type":"Point","coordinates":[-77.56825,39.51274]}},{"type":"Feature","properties":{"name":"Lutheran Church","PlaceName":"Myersville"},"geometry":{"type":"Point","coordinates":[-77.56785,39.50735]}},{"type":"Feature","properties":{"name":"Summers Family Cemetery","PlaceName":"Ellerton"},"geometry":{"type":"Point","coordinates":[-77.55044,39.52282]}},{"type":"Feature","properties":{"name":"Ambrose-Leatherman Family Cemetery","PlaceName":"Ellerton"},"geometry":{"type":"Point","coordinates":[-77.54368,39.51935]}},{"type":"Feature","properties":{"name":"St Johns Lutheran Church, Church Hill","PlaceName":"Ellerton"},"geometry":{"type":"Point","coordinates":[-77.55403,39.52627]}},{"type":"Feature","properties":{"name":"Grossnickles Brethren Church","PlaceName":"Ellerton"},"geometry":{"type":"Point","coordinates":[-77.52923,39.54475]}},{"type":"Feature","properties":{"name":"Highland Cemetery","PlaceName":"Highland"},"geometry":{"type":"Point","coordinates":[-77.51412,39.52065]}},{"type":"Feature","properties":{"name":"Miller Family Cemetery","PlaceName":"Highland"},"geometry":{"type":"Point","coordinates":[-77.5314,39.5113]}},{"type":"Feature","properties":{"name":"Brethren Cemetery","PlaceName":"Harmony"},"geometry":{"type":"Point","coordinates":[-77.53624,39.49447]}},{"type":"Feature","properties":{"name":"Brethren Church Old Cemetery","PlaceName":"Harmony"},"geometry":{"type":"Point","coordinates":[-77.53308,39.49426]}},{"type":"Feature","properties":{"name":"Johnson Family Cemetery","PlaceName":"Haw Bottom"},"geometry":{"type":"Point","coordinates":[-77.51664,39.47225]}},{"type":"Feature","properties":{"name":"Mt Tabor Church","PlaceName":"Frostown"},"geometry":{"type":"Point","coordinates":[-77.58885,39.47963]}},{"type":"Feature","properties":{"name":"Mt Hebron Cemetery","PlaceName":"Keedysville"},"geometry":{"type":"Point","coordinates":[-77.68976,39.48302]}},{"type":"Feature","properties":{"name":"Germantown Bethel Church of God","PlaceName":"Fort Ritchie, Cascade"},"geometry":{"type":"Point","coordinates":[-77.48609,39.70004]}},{"type":"Feature","properties":{"name":"Harbaugh Family Cemetery","PlaceName":"Sabillasville"},"geometry":{"type":"Point","coordinates":[-77.45536,39.69271]}},{"type":"Feature","properties":{"name":"Sabillasbille United Brethren Church Cemetery","PlaceName":"Sabillasville"},"geometry":{"type":"Point","coordinates":[-77.45634,39.69758]}},{"type":"Feature","properties":{"name":"St Johns Reformed Church","PlaceName":"Sabillasville"},"geometry":{"type":"Point","coordinates":[-77.45561,39.7001]}},{"type":"Feature","properties":{"name":"Otterbein Chapel United Brethren Church","PlaceName":"Sabillasville"},"geometry":{"type":"Point","coordinates":[-77.43239,39.70752]}},{"type":"Feature","properties":{"name":"St Jacobs Church","PlaceName":"Upper Harbaugh Valley"},"geometry":{"type":"Point","coordinates":[-77.43624,39.72845]}},{"type":"Feature","properties":{"name":"Friends Creek Church of God","PlaceName":"Friends Creek"},"geometry":{"type":"Point","coordinates":[-77.40405,39.71556]}},{"type":"Feature","properties":{"name":"United Brethren Dodge Chapel","PlaceName":"Eylers Valley"},"geometry":{"type":"Point","coordinates":[-77.40667,39.68641]}},{"type":"Feature","properties":{"name":"Old Mt St Marys Catholic Cemetery","PlaceName":"St Anthony"},"geometry":{"type":"Point","coordinates":[-77.35709,39.68122]}},{"type":"Feature","properties":{"name":"Elder Family Cemetery","PlaceName":"St Anthony"},"geometry":{"type":"Point","coordinates":[-77.35115,39.67281]}},{"type":"Feature","properties":{"name":"Mountain View Cemetery","PlaceName":"Emmitsburg"},"geometry":{"type":"Point","coordinates":[-77.33541,39.70946]}},{"type":"Feature","properties":{"name":"St Elias Lutheran Church","PlaceName":"Emmitsburg"},"geometry":{"type":"Point","coordinates":[-77.32788,39.70593]}},{"type":"Feature","properties":{"name":"St Josephs Catholic Church, Old Cemetery","PlaceName":"Emmitsburg"},"geometry":{"type":"Point","coordinates":[-77.3256,39.70527]}},{"type":"Feature","properties":{"name":"St Josephs Catholic Church, New Cemetery","PlaceName":"Emmitsburg"},"geometry":{"type":"Point","coordinates":[-77.3277,39.7004]}},{"type":"Feature","properties":{"name":"Presbyterian Cemetery","PlaceName":"Emmitsburg"},"geometry":{"type":"Point","coordinates":[-77.30882,39.71308]}},{"type":"Feature","properties":{"name":"Methodist Cemetery","PlaceName":"Toms Creek"},"geometry":{"type":"Point","coordinates":[-77.29359,39.6836]}},{"type":"Feature","properties":{"name":"Lutheran Cemetery","PlaceName":"Toms Creek"},"geometry":{"type":"Point","coordinates":[-77.29276,39.68392]}},{"type":"Feature","properties":{"name":"Whitmore Family Cemetery","PlaceName":"Toms Creek Area"},"geometry":{"type":"Point","coordinates":[-77.28469,39.65858]}},{"type":"Feature","properties":{"name":"Hoover Family Cemetery","PlaceName":"Thurmont"},"geometry":{"type":"Point","coordinates":[-77.37777,39.642]}},{"type":"Feature","properties":{"name":"Apples Reformed Church","PlaceName":"Thurmont"},"geometry":{"type":"Point","coordinates":[-77.39561,39.63116]}},{"type":"Feature","properties":{"name":"Lady of Mt Carmel Catholic Church","PlaceName":"Thurmont"},"geometry":{"type":"Point","coordinates":[-77.41185,39.62566]}},{"type":"Feature","properties":{"name":"United Brethren and Blue Ridge Cemeteries","PlaceName":"Thurmont"},"geometry":{"type":"Point","coordinates":[-77.41436,39.62767]}},{"type":"Feature","properties":{"name":"Brown Cemetery No 2","PlaceName":"Foxville"},"geometry":{"type":"Point","coordinates":[-77.48903,39.6443]}},{"type":"Feature","properties":{"name":"Henge (Hankey) Family Cemetery","PlaceName":"Thurmont"},"geometry":{"type":"Point","coordinates":[-77.40421,39.6052]}},{"type":"Feature","properties":{"name":"Moravian Church","PlaceName":"Graceham"},"geometry":{"type":"Point","coordinates":[-77.37806,39.61701]}},{"type":"Feature","properties":{"name":"Monocacy Church of the Brethren","PlaceName":"Rocky Ridge"},"geometry":{"type":"Point","coordinates":[-77.31772,39.60613]}},{"type":"Feature","properties":{"name":"Mt Tabor Church","PlaceName":"Rocky Ridge"},"geometry":{"type":"Point","coordinates":[-77.31771,39.6048]}},{"type":"Feature","properties":{"name":"Valentine Family Cemetery","PlaceName":"Millers Bridge"},"geometry":{"type":"Point","coordinates":[-77.30614,39.60977]}},{"type":"Feature","properties":{"name":"Ott Family Cemetery","PlaceName":"Millers Bridge"},"geometry":{"type":"Point","coordinates":[-77.29928,39.60621]}},{"type":"Feature","properties":{"name":"Pittenger Family Cemetery","PlaceName":"Millers Bridge"},"geometry":{"type":"Point","coordinates":[-77.29658,39.59857]}},{"type":"Feature","properties":{"name":"Methodist Protestant Cemetery","PlaceName":"Detour"},"geometry":{"type":"Point","coordinates":[-77.27256,39.5998]}},{"type":"Feature","properties":{"name":"Oak Hill Chruch of God","PlaceName":"Legore"},"geometry":{"type":"Point","coordinates":[-77.31351,39.5641]}},{"type":"Feature","properties":{"name":"Stull Family Cemetery","PlaceName":"Troutville"},"geometry":{"type":"Point","coordinates":[-77.33334,39.5749]}},{"type":"Feature","properties":{"name":"former Union Bethel Church of God","PlaceName":"Creagerstown"},"geometry":{"type":"Point","coordinates":[-77.36605,39.57729]}},{"type":"Feature","properties":{"name":"St Johns Lutheran and Reformed Church","PlaceName":"Creagerstown"},"geometry":{"type":"Point","coordinates":[-77.36721,39.57639]}},{"type":"Feature","properties":{"name":"Morningstar Family Cemetery","PlaceName":"Lewistown"},"geometry":{"type":"Point","coordinates":[-77.4291,39.55807]}},{"type":"Feature","properties":{"name":"Cronise-Fundenburg Family Cemetery","PlaceName":"Lewistown"},"geometry":{"type":"Point","coordinates":[-77.43025,39.55119]}},{"type":"Feature","properties":{"name":"Mt Prospect \"Hill\" Church","PlaceName":"Lewistown"},"geometry":{"type":"Point","coordinates":[-77.42142,39.54336]}},{"type":"Feature","properties":{"name":"Mountaindale Brethren Church","PlaceName":"Mountaindale"},"geometry":{"type":"Point","coordinates":[-77.43677,39.51974]}},{"type":"Feature","properties":{"name":"St Pauls Evangelical Lutheran Church","PlaceName":"Utica"},"geometry":{"type":"Point","coordinates":[-77.39344,39.52499]}},{"type":"Feature","properties":{"name":"Devilbiss Family Cemetery","PlaceName":"Utica"},"geometry":{"type":"Point","coordinates":[-77.38666,39.50932]}},{"type":"Feature","properties":{"name":"Mount Hope Cemetery","PlaceName":"Woodsboro"},"geometry":{"type":"Point","coordinates":[-77.31369,39.52651]}},{"type":"Feature","properties":{"name":"Harlan Family Cemetery","PlaceName":"Woodsboro"},"geometry":{"type":"Point","coordinates":[-77.31293,39.5341]}},{"type":"Feature","properties":{"name":"St Johns Reformed Church","PlaceName":"Woodsboro"},"geometry":{"type":"Point","coordinates":[-77.31317,39.53542]}},{"type":"Feature","properties":{"name":"St Peters Rocky Hill Litheran Church","PlaceName":"Woodsboro"},"geometry":{"type":"Point","coordinates":[-77.28757,39.53068]}},{"type":"Feature","properties":{"name":"Chapel Lutheran Church","PlaceName":"Libertytown"},"geometry":{"type":"Point","coordinates":[-77.27957,39.48635]}},{"type":"Feature","properties":{"name":"Mt Vernon United Brethren Cemetery","PlaceName":"Daysville"},"geometry":{"type":"Point","coordinates":[-77.29377,39.48482]}},{"type":"Feature","properties":{"name":"Link-Creager Family Cemetery","PlaceName":"Daysville"},"geometry":{"type":"Point","coordinates":[-77.31002,39.49106]}},{"type":"Feature","properties":{"name":"Isreal Creek Cemetery","PlaceName":"Walkersville"},"geometry":{"type":"Point","coordinates":[-77.33266,39.49338]}},{"type":"Feature","properties":{"name":"Shiloh Methodist Protestant Church","PlaceName":"Walkersville"},"geometry":{"type":"Point","coordinates":[-77.34864,39.4849]}},{"type":"Feature","properties":{"name":"Glade Reformed Church","PlaceName":"Walkersville"},"geometry":{"type":"Point","coordinates":[-77.35149,39.49545]}},{"type":"Feature","properties":{"name":"Miller Family Cemetery","PlaceName":"Charlesville"},"geometry":{"type":"Point","coordinates":[-77.42176,39.49188]}},{"type":"Feature","properties":{"name":"Zion Reformed Church","PlaceName":"Charlesville"},"geometry":{"type":"Point","coordinates":[-77.42987,39.48699]}},{"type":"Feature","properties":{"name":"Bethel Lutheran Church","PlaceName":"Bethel"},"geometry":{"type":"Point","coordinates":[-77.44144,39.50054]}},{"type":"Feature","properties":{"name":"Stull Family Cemetery","PlaceName":"Bethel"},"geometry":{"type":"Point","coordinates":[-77.44952,39.49769]}},{"type":"Feature","properties":{"name":"Brook Hill Methodist Church","PlaceName":"Yellow Springs"},"geometry":{"type":"Point","coordinates":[-77.45768,39.47728]}},{"type":"Feature","properties":{"name":"Lutheran Mountain View Church","PlaceName":"Harney"},"geometry":{"type":"Point","coordinates":[-77.21024,39.71963]}},{"type":"Feature","properties":{"name":"Piney Creek Presbyterian Church","PlaceName":"Harney"},"geometry":{"type":"Point","coordinates":[-77.19803,39.69847]}},{"type":"Feature","properties":{"name":"old cemetery on Baptist Rd","PlaceName":"Taneytown"},"geometry":{"type":"Point","coordinates":[-77.20223,39.67083]}},{"type":"Feature","properties":{"name":"Trinity Lutheran Church","PlaceName":"Taneytown"},"geometry":{"type":"Point","coordinates":[-77.17533,39.66341]}},{"type":"Feature","properties":{"name":"Catholic Church","PlaceName":"Taneytown"},"geometry":{"type":"Point","coordinates":[-77.17905,39.65835]}},{"type":"Feature","properties":{"name":"Grace Evangelical and Reformed Church","PlaceName":"Taneytown"},"geometry":{"type":"Point","coordinates":[-77.18013,39.66069]}},{"type":"Feature","properties":{"name":"Union Cemetery","PlaceName":"Keysville"},"geometry":{"type":"Point","coordinates":[-77.2596,39.63305]}},{"type":"Feature","properties":{"name":"Dods-Brooke-Scott Family Cemetery","PlaceName":"Bruceville"},"geometry":{"type":"Point","coordinates":[-77.23996,39.61273]}},{"type":"Feature","properties":{"name":"Haughs (Mt Zion) Lutheran Church","PlaceName":"Ladiesburg"},"geometry":{"type":"Point","coordinates":[-77.26356,39.58847]}},{"type":"Feature","properties":{"name":"Middleburg Methodist Church","PlaceName":"Middleburg"},"geometry":{"type":"Point","coordinates":[-77.22003,39.59417]}},{"type":"Feature","properties":{"name":"Lynn Family Cemetery","PlaceName":"Middleburg"},"geometry":{"type":"Point","coordinates":[-77.20611,39.59203]}},{"type":"Feature","properties":{"name":"Pipe Creek Cemetery","PlaceName":"Uniontown"},"geometry":{"type":"Point","coordinates":[-77.12628,39.57539]}},{"type":"Feature","properties":{"name":"Winters Lutheran and Reformed Church","PlaceName":"New Windsor"},"geometry":{"type":"Point","coordinates":[-77.12338,39.55712]}},{"type":"Feature","properties":{"name":"Church of God Cemetery","PlaceName":"Uniontown"},"geometry":{"type":"Point","coordinates":[-77.11899,39.5953]}},{"type":"Feature","properties":{"name":"St Pauls Lutheran Church","PlaceName":"Uniontown"},"geometry":{"type":"Point","coordinates":[-77.10998,39.59439]}},{"type":"Feature","properties":{"name":"Nicodemus-Nusbaum Family Cemetery","PlaceName":"New Windsor"},"geometry":{"type":"Point","coordinates":[-77.10314,39.5388]}},{"type":"Feature","properties":{"name":"Presbyterian Church","PlaceName":"New Windsor"},"geometry":{"type":"Point","coordinates":[-77.10742,39.54245]}},{"type":"Feature","properties":{"name":"Greenwood Church","PlaceName":"New Windsor"},"geometry":{"type":"Point","coordinates":[-77.12742,39.52829]}},{"type":"Feature","properties":{"name":"Senseney Family Cemetery","PlaceName":"McKinstrys Mill"},"geometry":{"type":"Point","coordinates":[-77.15466,39.54704]}},{"type":"Feature","properties":{"name":"Wolf Cemetery","PlaceName":"Union Bridge"},"geometry":{"type":"Point","coordinates":[-77.16575,39.55497]}},{"type":"Feature","properties":{"name":"Pipe Creek Friends Cemetery","PlaceName":"Union Bridge"},"geometry":{"type":"Point","coordinates":[-77.17041,39.56371]}},{"type":"Feature","properties":{"name":"Mountain View Cemetery","PlaceName":"Union Bridge"},"geometry":{"type":"Point","coordinates":[-77.179,39.56401]}},{"type":"Feature","properties":{"name":"Shepherd-Webb Family Cemetery","PlaceName":"Union Bridge"},"geometry":{"type":"Point","coordinates":[-77.18766,39.56796]}},{"type":"Feature","properties":{"name":"German Baptist Church","PlaceName":"Johnsville"},"geometry":{"type":"Point","coordinates":[-77.19743,39.5563]}},{"type":"Feature","properties":{"name":"Beaver Dam Brethren Churches","PlaceName":"Johnsville"},"geometry":{"type":"Point","coordinates":[-77.20534,39.54872]}},{"type":"Feature","properties":{"name":"Saylor Family Cemetery","PlaceName":"Johnsville"},"geometry":{"type":"Point","coordinates":[-77.21633,39.55793]}},{"type":"Feature","properties":{"name":"Bethel Cemetery","PlaceName":"Good Intent Rd"},"geometry":{"type":"Point","coordinates":[-77.21076,39.57001]}},{"type":"Feature","properties":{"name":"Roop Family Cemetery","PlaceName":"Good Intent Rd"},"geometry":{"type":"Point","coordinates":[-77.21946,39.57335]}},{"type":"Feature","properties":{"name":"Smith Family Cemetery","PlaceName":"Good Intent Rd"},"geometry":{"type":"Point","coordinates":[-77.2296,39.57575]}},{"type":"Feature","properties":{"name":"Stoner-Butcher Family Cemetery","PlaceName":"Johnsville"},"geometry":{"type":"Point","coordinates":[-77.23891,39.55188]}},{"type":"Feature","properties":{"name":"Methodist Protestant Church","PlaceName":"Johnsville"},"geometry":{"type":"Point","coordinates":[-77.23119,39.53918]}},{"type":"Feature","properties":{"name":"Methodist Episcopal Church","PlaceName":"Johnsville"},"geometry":{"type":"Point","coordinates":[-77.23102,39.53532]}},{"type":"Feature","properties":{"name":"Grabill Family Cemetery No 1","PlaceName":"Johnsville"},"geometry":{"type":"Point","coordinates":[-77.21211,39.53154]}},{"type":"Feature","properties":{"name":"Grabill Family Cemetery No 2","PlaceName":"Johnsville"},"geometry":{"type":"Point","coordinates":[-77.20821,39.52763]}},{"type":"Feature","properties":{"name":"Baker Family Cemetery","PlaceName":"Johnsville"},"geometry":{"type":"Point","coordinates":[-77.19921,39.52539]}},{"type":"Feature","properties":{"name":"Sams Creek Methodist Protestant Cemetery","PlaceName":"McKinstrys Mill"},"geometry":{"type":"Point","coordinates":[-77.16397,39.5252]}},{"type":"Feature","properties":{"name":"Saum Family Cemetery","PlaceName":"McKinstrys Mill"},"geometry":{"type":"Point","coordinates":[-77.1621,39.51759]}},{"type":"Feature","properties":{"name":"Landis Family Cemetery","PlaceName":"Englars Mill"},"geometry":{"type":"Point","coordinates":[-77.13162,39.51157]}},{"type":"Feature","properties":{"name":"Clemson Family Cemetery","PlaceName":"Clemsonville"},"geometry":{"type":"Point","coordinates":[-77.17814,39.51339]}},{"type":"Feature","properties":{"name":"Simpson Family Cemetery No 1","PlaceName":"Libertytown"},"geometry":{"type":"Point","coordinates":[-77.20967,39.50906]}},{"type":"Feature","properties":{"name":"Burgess Family Cemetery","PlaceName":"Libertytown"},"geometry":{"type":"Point","coordinates":[-77.26263,39.51124]}},{"type":"Feature","properties":{"name":"Fairmont Cemetery","PlaceName":"Libertytown"},"geometry":{"type":"Point","coordinates":[-77.25228,39.48285]}},{"type":"Feature","properties":{"name":"Lovers Rock Cemetery","PlaceName":"Libertytown"},"geometry":{"type":"Point","coordinates":[-77.25074,39.47687]}},{"type":"Feature","properties":{"name":"St Peters Catholic Church","PlaceName":"Libertytown"},"geometry":{"type":"Point","coordinates":[-77.23948,39.48731]}},{"type":"Feature","properties":{"name":"Simpson Family Cemetery No 2","PlaceName":"Libertytown"},"geometry":{"type":"Point","coordinates":[-77.22632,39.49294]}},{"type":"Feature","properties":{"name":"Linganore Chapel Methodist Church","PlaceName":"Unionville"},"geometry":{"type":"Point","coordinates":[-77.18477,39.48017]}},{"type":"Feature","properties":{"name":"Dudderar Family Cemetery","PlaceName":"Oak Orchard"},"geometry":{"type":"Point","coordinates":[-77.16308,39.48991]}},{"type":"Feature","properties":{"name":"Ensey Family Cemetery","PlaceName":"Oak Orchard"},"geometry":{"type":"Point","coordinates":[-77.16238,39.4812]}},{"type":"Feature","properties":{"name":"Baker Family Cemetery","PlaceName":"Oak Orchard"},"geometry":{"type":"Point","coordinates":[-77.15086,39.48697]}},{"type":"Feature","properties":{"name":"Lugenbeel-Worman Family Cemetery","PlaceName":"Weldon"},"geometry":{"type":"Point","coordinates":[-77.1337,39.4748]}},{"type":"Feature","properties":{"name":"Devilbiss Family Cemetery","PlaceName":"Sams Creek"},"geometry":{"type":"Point","coordinates":[-77.12804,39.49846]}},{"type":"Feature","properties":{"name":"Bethel Methodist Church","PlaceName":"Sams Creek"},"geometry":{"type":"Point","coordinates":[-77.10683,39.49357]}},{"type":"Feature","properties":{"name":"abandoned Mt Hope Church of God","PlaceName":"Locust Valley"},"geometry":{"type":"Point","coordinates":[-77.62709,39.43469]}},{"type":"Feature","properties":{"name":"Church of God","PlaceName":"Locust Valley"},"geometry":{"type":"Point","coordinates":[-77.62606,39.4261]}},{"type":"Feature","properties":{"name":"Young Family Cemetery","PlaceName":"Locust Valley"},"geometry":{"type":"Point","coordinates":[-77.61499,39.43116]}},{"type":"Feature","properties":{"name":"Ramsburg Family Cemetery","PlaceName":"Locust Valley"},"geometry":{"type":"Point","coordinates":[-77.59376,39.43868]}},{"type":"Feature","properties":{"name":"Middletown Lutheran Cemetery","PlaceName":"Middletown"},"geometry":{"type":"Point","coordinates":[-77.54564,39.44602]}},{"type":"Feature","properties":{"name":"Middletown Reformed Church","PlaceName":"Middletown"},"geometry":{"type":"Point","coordinates":[-77.54388,39.44222]}},{"type":"Feature","properties":{"name":"Main Family Cemetery","PlaceName":"High Knob"},"geometry":{"type":"Point","coordinates":[-77.49943,39.45251]}},{"type":"Feature","properties":{"name":"Pyke-Coblentz Family Cemetery","PlaceName":"Braddock Heights"},"geometry":{"type":"Point","coordinates":[-77.51675,39.43216]}},{"type":"Feature","properties":{"name":"Smith Family Cemetery","PlaceName":"Braddock Heights"},"geometry":{"type":"Point","coordinates":[-77.52988,39.40289]}},{"type":"Feature","properties":{"name":"House-Phillips Family Cemetery","PlaceName":"Burkittsville"},"geometry":{"type":"Point","coordinates":[-77.53537,39.39281]}},{"type":"Feature","properties":{"name":"Schoolhouse Cemetery","PlaceName":"Burkittsville"},"geometry":{"type":"Point","coordinates":[-77.60841,39.40907]}},{"type":"Feature","properties":{"name":"Pleasant View Brethren Church","PlaceName":"Burkittsville"},"geometry":{"type":"Point","coordinates":[-77.60854,39.40291]}},{"type":"Feature","properties":{"name":"Burkittsville Cemetery","PlaceName":"Burkittsville"},"geometry":{"type":"Point","coordinates":[-77.6278,39.39397]}},{"type":"Feature","properties":{"name":"Slifer Family Cemetery","PlaceName":"Burkittsville"},"geometry":{"type":"Point","coordinates":[-77.62893,39.3806]}},{"type":"Feature","properties":{"name":"Hook-McGill Familty Cemetery","PlaceName":"Petersville"},"geometry":{"type":"Point","coordinates":[-77.6162,39.3598]}},{"type":"Feature","properties":{"name":"St Marys Catholic Church","PlaceName":"Petersville"},"geometry":{"type":"Point","coordinates":[-77.61602,39.34837]}},{"type":"Feature","properties":{"name":"St Marks Episcopal Church","PlaceName":"Petersville"},"geometry":{"type":"Point","coordinates":[-77.59991,39.35251]}},{"type":"Feature","properties":{"name":"Jefferson Union Cemetery","PlaceName":"Jefferson"},"geometry":{"type":"Point","coordinates":[-77.53518,39.36285]}},{"type":"Feature","properties":{"name":"Lamar Family Cemetery","PlaceName":"Jefferson"},"geometry":{"type":"Point","coordinates":[-77.55201,39.38014]}},{"type":"Feature","properties":{"name":"Jefferson Methodist Church","PlaceName":"Jefferson"},"geometry":{"type":"Point","coordinates":[-77.5329,39.36276]}},{"type":"Feature","properties":{"name":"Culler Family Cemetery","PlaceName":"Jefferson"},"geometry":{"type":"Point","coordinates":[-77.52321,39.37394]}},{"type":"Feature","properties":{"name":"Hoffman Family Cemetery","PlaceName":"Mountville"},"geometry":{"type":"Point","coordinates":[-77.5019,39.35102]}},{"type":"Feature","properties":{"name":"Thomas Family (German) Cemetery","PlaceName":"Mountville"},"geometry":{"type":"Point","coordinates":[-77.49891,39.33299]}},{"type":"Feature","properties":{"name":"Johnson Family Cemetery","PlaceName":"Doubs"},"geometry":{"type":"Point","coordinates":[-77.5062,39.30434]}},{"type":"Feature","properties":{"name":"Otho Thomas Family (English) Cemetery","PlaceName":"Point of Rocks"},"geometry":{"type":"Point","coordinates":[-77.50493,39.27531]}},{"type":"Feature","properties":{"name":"Lakin Family Cemetery","PlaceName":"Catoctin Creek area"},"geometry":{"type":"Point","coordinates":[-77.53895,39.32571]}},{"type":"Feature","properties":{"name":"St Pauls Episcopal Church","PlaceName":"Point of Rocks"},"geometry":{"type":"Point","coordinates":[-77.5288,39.28753]}},{"type":"Feature","properties":{"name":"Clagett-Duvall Family Cemetery","PlaceName":"Catoctin Creek area"},"geometry":{"type":"Point","coordinates":[-77.58064,39.31543]}},{"type":"Feature","properties":{"name":"Park Heights Cemetery","PlaceName":"Brunswick"},"geometry":{"type":"Point","coordinates":[-77.61452,39.31689]}},{"type":"Feature","properties":{"name":"Old Lutheran Cemetery","PlaceName":"Brunswick"},"geometry":{"type":"Point","coordinates":[-77.63017,39.3145]}},{"type":"Feature","properties":{"name":"Garrett Family Cemetery","PlaceName":"Knoxville"},"geometry":{"type":"Point","coordinates":[-77.65341,39.34022]}},{"type":"Feature","properties":{"name":"old Reformed Cemetery","PlaceName":"Knoxville"},"geometry":{"type":"Point","coordinates":[-77.66459,39.32923]}},{"type":"Feature","properties":{"name":"Virts Cemetery","PlaceName":"Sandy Hook"},"geometry":{"type":"Point","coordinates":[-77.69642,39.32986]}},{"type":"Feature","properties":{"name":"old Cemetery","PlaceName":"Sandy Hook"},"geometry":{"type":"Point","coordinates":[-77.71088,39.32721]}},{"type":"Feature","properties":{"name":"Pleasant Hill Reformed Church","PlaceName":"Indian Springss"},"geometry":{"type":"Point","coordinates":[-77.44624,39.46334]}},{"type":"Feature","properties":{"name":"Angleberger Family Cemetery","PlaceName":"Indian Springs"},"geometry":{"type":"Point","coordinates":[-77.44399,39.46615]}},{"type":"Feature","properties":{"name":"Clemson Family Cemetery","PlaceName":"Bloomfield"},"geometry":{"type":"Point","coordinates":[-77.41685,39.4673]}},{"type":"Feature","properties":{"name":"Stephen Ramsburg Family Cemetery","PlaceName":"Hamony Grove"},"geometry":{"type":"Point","coordinates":[-77.40031,39.46841]}},{"type":"Feature","properties":{"name":"Cronise Family Cemetery","PlaceName":"Harmony Grove"},"geometry":{"type":"Point","coordinates":[-77.39276,39.45771]}},{"type":"Feature","properties":{"name":"Cock-Grahame Family Cemetery","PlaceName":"Ceresville"},"geometry":{"type":"Point","coordinates":[-77.3713,39.45792]}},{"type":"Feature","properties":{"name":"Mt Pleasant Methodist Church","PlaceName":"Mt Pleasant"},"geometry":{"type":"Point","coordinates":[-77.3313,39.45413]}},{"type":"Feature","properties":{"name":"Mt Pleasant Reformed Church","PlaceName":"Mt Pleasant"},"geometry":{"type":"Point","coordinates":[-77.32869,39.45418]}},{"type":"Feature","properties":{"name":"Mt Zion Methodist Church","PlaceName":"McKaig"},"geometry":{"type":"Point","coordinates":[-77.3101,39.43368]}},{"type":"Feature","properties":{"name":"abandoned Faiview Methodist Protestant Church","PlaceName":"McKaig"},"geometry":{"type":"Point","coordinates":[-77.31122,39.42146]}},{"type":"Feature","properties":{"name":"Lease Family Cemetery","PlaceName":"McKaig"},"geometry":{"type":"Point","coordinates":[-77.30012,39.43205]}},{"type":"Feature","properties":{"name":"Jones Family Cemetery","PlaceName":"New London"},"geometry":{"type":"Point","coordinates":[-77.27526,39.44213]}},{"type":"Feature","properties":{"name":"Nelson Family Cemetery","PlaceName":"New London"},"geometry":{"type":"Point","coordinates":[-77.27757,39.43327]}},{"type":"Feature","properties":{"name":"Price Family Cemetery","PlaceName":"New Market area"},"geometry":{"type":"Point","coordinates":[-77.30389,39.40566]}},{"type":"Feature","properties":{"name":"Hammond Family Cemetery","PlaceName":"New Market area"},"geometry":{"type":"Point","coordinates":[-77.29637,39.40622]}},{"type":"Feature","properties":{"name":"Hall-Wood Family Cemetery","PlaceName":"New Market"},"geometry":{"type":"Point","coordinates":[-77.28497,39.38122]}},{"type":"Feature","properties":{"name":"Friends Cemetery","PlaceName":"Monrovia"},"geometry":{"type":"Point","coordinates":[-77.2753,39.37238]}},{"type":"Feature","properties":{"name":"Ijamsville Methodist Church","PlaceName":"Ijamsville"},"geometry":{"type":"Point","coordinates":[-77.32167,39.36337]}},{"type":"Feature","properties":{"name":"Trinity Reformed Church","PlaceName":"Bartonsville"},"geometry":{"type":"Point","coordinates":[-77.33496,39.39395]}},{"type":"Feature","properties":{"name":"Mt Carmel Methodist Church","PlaceName":"Bartonsville"},"geometry":{"type":"Point","coordinates":[-77.33754,39.39469]}},{"type":"Feature","properties":{"name":"Keller Family Cemetery","PlaceName":"Reichs Ford Road"},"geometry":{"type":"Point","coordinates":[-77.36698,39.37857]}},{"type":"Feature","properties":{"name":"Crum Family Cemetery","PlaceName":"Reichs Ford Road"},"geometry":{"type":"Point","coordinates":[-77.3852,39.39211]}},{"type":"Feature","properties":{"name":"Evangelical Lutheran Church and Cemetery","PlaceName":"Frederick"},"geometry":{"type":"Point","coordinates":[-77.40933,39.41593]}},{"type":"Feature","properties":{"name":"St Johns Catholic Church","PlaceName":"Frederick"},"geometry":{"type":"Point","coordinates":[-77.40539,39.41816]}},{"type":"Feature","properties":{"name":"Reformed Cemeteries abandoned","PlaceName":"Frederick"},"geometry":{"type":"Point","coordinates":[-77.41442,39.41718]}},{"type":"Feature","properties":{"name":"Mt Olivet Cemetery","PlaceName":"Frederick"},"geometry":{"type":"Point","coordinates":[-77.41572,39.40356]}},{"type":"Feature","properties":{"name":"Memorial Park Cemetery and Coister","PlaceName":"Frederick"},"geometry":{"type":"Point","coordinates":[-77.43933,39.41113]}},{"type":"Feature","properties":{"name":"Kemp Family Cemetery","PlaceName":"Rocky Springs"},"geometry":{"type":"Point","coordinates":[-77.43791,39.44159]}},{"type":"Feature","properties":{"name":"Rocky Springs Cemetery","PlaceName":"Rocky Springs"},"geometry":{"type":"Point","coordinates":[-77.44141,39.44019]}},{"type":"Feature","properties":{"name":"Shook Family Cemetery","PlaceName":"Shookstown"},"geometry":{"type":"Point","coordinates":[-77.46058,39.43626]}},{"type":"Feature","properties":{"name":"Getzendanner Family Cemetery","PlaceName":"Braddock"},"geometry":{"type":"Point","coordinates":[-77.46334,39.41773]}},{"type":"Feature","properties":{"name":"Mt Zion Lutheran Church","PlaceName":"Feagaville"},"geometry":{"type":"Point","coordinates":[-77.48778,39.38941]}},{"type":"Feature","properties":{"name":"St Luke Lutheran Church","PlaceName":"Feagaville"},"geometry":{"type":"Point","coordinates":[-77.47485,39.38486]}},{"type":"Feature","properties":{"name":"Zimmerman Family Cemetery","PlaceName":"Ballenger Creek Pike"},"geometry":{"type":"Point","coordinates":[-77.46192,39.36639]}},{"type":"Feature","properties":{"name":"St Matthews Lutheran Church","PlaceName":"Ballenger Creek Pike"},"geometry":{"type":"Point","coordinates":[-77.47467,39.34415]}},{"type":"Feature","properties":{"name":"St Josephs Carrollton Manor Catholic Church","PlaceName":"Buckeystown"},"geometry":{"type":"Point","coordinates":[-77.46305,39.33035]}},{"type":"Feature","properties":{"name":"Methodist Church Site","PlaceName":"Buckeystown"},"geometry":{"type":"Point","coordinates":[-77.43033,39.33122]}},{"type":"Feature","properties":{"name":"Davis Family Cemetery","PlaceName":"Buckeystown"},"geometry":{"type":"Point","coordinates":[-77.4252,39.3359]}},{"type":"Feature","properties":{"name":"Simmons Family Cemetery","PlaceName":"Urbana"},"geometry":{"type":"Point","coordinates":[-77.35673,39.33348]}},{"type":"Feature","properties":{"name":"Wesley Chapel Methodist Church","PlaceName":"Urbana"},"geometry":{"type":"Point","coordinates":[-77.35358,39.32703]}},{"type":"Feature","properties":{"name":"Rine Family Cemetery","PlaceName":"Urbana"},"geometry":{"type":"Point","coordinates":[-77.34374,39.32616]}},{"type":"Feature","properties":{"name":"Urbana Catholic Church","PlaceName":"Urbana"},"geometry":{"type":"Point","coordinates":[-77.35331,39.32474]}},{"type":"Feature","properties":{"name":"Zion Episcopal Church","PlaceName":"Urbana"},"geometry":{"type":"Point","coordinates":[-77.35496,39.32603]}},{"type":"Feature","properties":{"name":"Flint Hill Methodist Church","PlaceName":"Flint Hill"},"geometry":{"type":"Point","coordinates":[-77.40161,39.30968]}},{"type":"Feature","properties":{"name":"Simmons Family Marker","PlaceName":"Park Mills"},"geometry":{"type":"Point","coordinates":[-77.41134,39.29681]}},{"type":"Feature","properties":{"name":"Koontz Chapel Methodist Church","PlaceName":"Koontz Chapel"},"geometry":{"type":"Point","coordinates":[-77.4276,39.27916]}},{"type":"Feature","properties":{"name":"Yingling Family Cemetery","PlaceName":"Koontz Chapel"},"geometry":{"type":"Point","coordinates":[-77.41929,39.27986]}},{"type":"Feature","properties":{"name":"Benton Family Cemetery","PlaceName":"Hyattstown"},"geometry":{"type":"Point","coordinates":[-77.35996,39.26642]}},{"type":"Feature","properties":{"name":"Simmons Family Cemetery","PlaceName":"Hyattstown"},"geometry":{"type":"Point","coordinates":[-77.35393,39.26994]}},{"type":"Feature","properties":{"name":"Sugar Loaf Mountain Chapel Cemetery","PlaceName":"Hyattstown"},"geometry":{"type":"Point","coordinates":[-77.34445,39.26165]}},{"type":"Feature","properties":{"name":"Rollins Family Cemetery","PlaceName":"Hyattstown"},"geometry":{"type":"Point","coordinates":[-77.33769,39.27746]}},{"type":"Feature","properties":{"name":"McElfresh Family Cemetery","PlaceName":"Hyattstown"},"geometry":{"type":"Point","coordinates":[-77.3241,39.28457]}},{"type":"Feature","properties":{"name":"Hyattstown Methodist Church","PlaceName":"Hyattstown"},"geometry":{"type":"Point","coordinates":[-77.31374,39.28517]}},{"type":"Feature","properties":{"name":"Hyattstown Christian Cemetery","PlaceName":"Hyattstown"},"geometry":{"type":"Point","coordinates":[-77.31273,39.2771]}},{"type":"Feature","properties":{"name":"Lawson Family Cemetery","PlaceName":"Browningsville"},"geometry":{"type":"Point","coordinates":[-77.27247,39.31543]}},{"type":"Feature","properties":{"name":"old Methodist Cemetery abandoned","PlaceName":"Pleasant Grove"},"geometry":{"type":"Point","coordinates":[-77.27968,39.32569]}},{"type":"Feature","properties":{"name":"Pleasant Grove Methodist Church","PlaceName":"Pleasant Grove"},"geometry":{"type":"Point","coordinates":[-77.27805,39.3279]}},{"type":"Feature","properties":{"name":"Campbell Family Cemetery","PlaceName":"Unionville"},"geometry":{"type":"Point","coordinates":[-77.21059,39.46564]}},{"type":"Feature","properties":{"name":"Dorsey-Mercer Family Cemetery","PlaceName":"Unionville"},"geometry":{"type":"Point","coordinates":[-77.18496,39.4474]}},{"type":"Feature","properties":{"name":"Lugenbeel Family Cemetery No 1","PlaceName":"Unionville"},"geometry":{"type":"Point","coordinates":[-77.18694,39.46562]}},{"type":"Feature","properties":{"name":"Lugenbeel Family Cemetery No 2","PlaceName":"Unionville"},"geometry":{"type":"Point","coordinates":[-77.13972,39.4691]}},{"type":"Feature","properties":{"name":"old Hammond Property","PlaceName":"Covers Corner"},"geometry":{"type":"Point","coordinates":[-77.12046,39.46961]}},{"type":"Feature","properties":{"name":"Gosnell-Haines Family Cemetery","PlaceName":"Covers Corner"},"geometry":{"type":"Point","coordinates":[-77.1207,39.46115]}},{"type":"Feature","properties":{"name":"Bethany Methodist Episcopal Cemetery","PlaceName":"Covers Corner"},"geometry":{"type":"Point","coordinates":[-77.10558,39.46387]}},{"type":"Feature","properties":{"name":"Fleming Family Cemetery","PlaceName":"Gosnell"},"geometry":{"type":"Point","coordinates":[-77.10165,39.40548]}},{"type":"Feature","properties":{"name":"Douty Family Cemetery","PlaceName":"Harrisville"},"geometry":{"type":"Point","coordinates":[-77.13662,39.42497]}},{"type":"Feature","properties":{"name":"Harn Family Cemetery","PlaceName":"Harrisville"},"geometry":{"type":"Point","coordinates":[-77.16186,39.44345]}},{"type":"Feature","properties":{"name":"Poole Family Cemetery No 1","PlaceName":"Linganore"},"geometry":{"type":"Point","coordinates":[-77.18163,39.44009]}},{"type":"Feature","properties":{"name":"Locust Grove Brethren Church","PlaceName":"Linganore"},"geometry":{"type":"Point","coordinates":[-77.19898,39.43506]}},{"type":"Feature","properties":{"name":"Poole Family Cemetery No 2","PlaceName":"Linganore"},"geometry":{"type":"Point","coordinates":[-77.20924,39.43748]}},{"type":"Feature","properties":{"name":"James-Kimmel Family Cemetery","PlaceName":"Linganore"},"geometry":{"type":"Point","coordinates":[-77.22113,39.42087]}},{"type":"Feature","properties":{"name":"Devilbiss-Clary Family Cemetery","PlaceName":"Linganore"},"geometry":{"type":"Point","coordinates":[-77.23407,39.45446]}},{"type":"Feature","properties":{"name":"Central Chapel Methodist Church","PlaceName":"New London"},"geometry":{"type":"Point","coordinates":[-77.25422,39.43395]}},{"type":"Feature","properties":{"name":"Buckey Family Cemetery","PlaceName":"New London"},"geometry":{"type":"Point","coordinates":[-77.23654,39.41655]}},{"type":"Feature","properties":{"name":"Hammond Family Cemetery","PlaceName":"New London"},"geometry":{"type":"Point","coordinates":[-77.25336,39.40986]}},{"type":"Feature","properties":{"name":"Methodist Episcopal Church","PlaceName":"New Market"},"geometry":{"type":"Point","coordinates":[-77.26934,39.38473]}},{"type":"Feature","properties":{"name":"Methodist Protestant Cemetery","PlaceName":"New Market"},"geometry":{"type":"Point","coordinates":[-77.27075,39.38421]}},{"type":"Feature","properties":{"name":"Dorsey Family Cemetery","PlaceName":"New Market"},"geometry":{"type":"Point","coordinates":[-77.23949,39.38524]}},{"type":"Feature","properties":{"name":"Buch Creek German Baptist Chuch","PlaceName":"Monrovia"},"geometry":{"type":"Point","coordinates":[-77.26972,39.36534]}},{"type":"Feature","properties":{"name":"Marvin Chapel Methodist Church","PlaceName":"Mt Airy"},"geometry":{"type":"Point","coordinates":[-77.20688,39.37452]}},{"type":"Feature","properties":{"name":"Mount Prospect Methodist Church","PlaceName":"Mt Airy"},"geometry":{"type":"Point","coordinates":[-77.17998,39.395]}},{"type":"Feature","properties":{"name":"Breshear Family Cemetery","PlaceName":"Mt Airy"},"geometry":{"type":"Point","coordinates":[-77.15805,39.39651]}},{"type":"Feature","properties":{"name":"Pine Grove Methodist Church","PlaceName":"Mt Airy"},"geometry":{"type":"Point","coordinates":[-77.15895,39.37124]}},{"type":"Feature","properties":{"name":"England Family Cemetery","PlaceName":"Poplar Springs"},"geometry":{"type":"Point","coordinates":[-77.11589,39.35607]}},{"type":"Feature","properties":{"name":"Stackhouse Family Cemetery","PlaceName":"Poplar Springs"},"geometry":{"type":"Point","coordinates":[-77.11809,39.34949]}},{"type":"Feature","properties":{"name":"Montgomery Chapel Methodist Church","PlaceName":"Claggetsville"},"geometry":{"type":"Point","coordinates":[-77.1986,39.31881]}},{"type":"Feature","properties":{"name":"Fowler-Rine Family Cemetery","PlaceName":"Kemptown"},"geometry":{"type":"Point","coordinates":[-77.21157,39.35253]}},{"type":"Feature","properties":{"name":"Fowler-Rine Family Cemetery","PlaceName":"Kemptown"},"geometry":{"type":"Point","coordinates":[-77.23346,39.3403]}},{"type":"Feature","properties":{"name":"Providence Methodist Church","PlaceName":"Kemptown"},"geometry":{"type":"Point","coordinates":[-77.2295,39.33517]}},{"type":"Feature","properties":{"name":"Bethesda Methodist Church","PlaceName":"Browningsville"},"geometry":{"type":"Point","coordinates":[-77.24752,39.31364]}},{"type":"Feature","properties":{"name":"Colored","PlaceName":"Frederick City"},"geometry":{"type":"Point","coordinates":[-77.40704,39.42085]}},{"type":"Feature","properties":{"name":"Presbyterian 2nd Cemetery","PlaceName":"Frederick City"},"geometry":{"type":"Point","coordinates":[-77.41367,39.41903]}},{"type":"Feature","properties":{"name":"Methodist","PlaceName":"Frederick City"},"geometry":{"type":"Point","coordinates":[-77.40827,39.41862]}},{"type":"Feature","properties":{"name":"Novitiate Property","PlaceName":"Frederick City"},"geometry":{"type":"Point","coordinates":[-77.40253,39.41667]}},{"type":"Feature","properties":{"name":"Novitiate of the Society of Jesus","PlaceName":"Frederick City"},"geometry":{"type":"Point","coordinates":[-77.40748,39.41718]}},{"type":"Feature","properties":{"name":"Presbyterian 1st Cemetery","PlaceName":"Frederick City"},"geometry":{"type":"Point","coordinates":[-77.41256,39.41742]}},{"type":"Feature","properties":{"name":"Shriver Family Cemetery","PlaceName":"Frederick City"},"geometry":{"type":"Point","coordinates":[-77.41389,39.41781]}},{"type":"Feature","properties":{"name":"Academy of the Visitation","PlaceName":"Frederick City"},"geometry":{"type":"Point","coordinates":[-77.4067,39.41542]}},{"type":"Feature","properties":{"name":"Lutheran 2nd Cemetery","PlaceName":"Frederick City"},"geometry":{"type":"Point","coordinates":[-77.40439,39.41497]}},{"type":"Feature","properties":{"name":"Reformed Trinity Chapel","PlaceName":"Frederick City"},"geometry":{"type":"Point","coordinates":[-77.41136,39.41479]}},{"type":"Feature","properties":{"name":"Colored A.M.E.","PlaceName":"Frederick City"},"geometry":{"type":"Point","coordinates":[-77.40997,39.41233]}},{"type":"Feature","properties":{"name":"Episcopal All Saints","PlaceName":"Frederick City"},"geometry":{"type":"Point","coordinates":[-77.40956,39.41232]}},{"type":"Feature","properties":{"name":"Mt Pleasant Church of God","PlaceName":"Foxville"},"geometry":{"type":"Point","coordinates":[-77.5267,39.63558]}},{"type":"Feature","properties":{"name":"Toms Family Cemetery No 2","PlaceName":"Foxville"},"geometry":{"type":"Point","coordinates":[-77.51375,39.64931]}},{"type":"Feature","properties":{"name":"Brown Family Cemetery #3","PlaceName":"Foxville"},"geometry":{"type":"Point","coordinates":[-77.50605,39.63823]}},{"type":"Feature","properties":{"name":"Ridenour Family Cemetery","PlaceName":"Foxville"},"geometry":{"type":"Point","coordinates":[-77.501,39.63402]}},{"type":"Feature","properties":{"name":"Wolf Family Cemetery","PlaceName":"Garfield"},"geometry":{"type":"Point","coordinates":[-77.52811,39.60305]}},{"type":"Feature","properties":{"name":"Kline Family Cemetery","PlaceName":"Wolfsville"},"geometry":{"type":"Point","coordinates":[-77.55194,39.5925]}},{"type":"Feature","properties":{"name":"Maugans Family Cemetery","PlaceName":"Wolfsville"},"geometry":{"type":"Point","coordinates":[-77.55625,39.56539]}},{"type":"Feature","properties":{"name":"Leatherman Family Cemetery","PlaceName":"Wolfsville"},"geometry":{"type":"Point","coordinates":[-77.54789,39.56864]}},{"type":"Feature","properties":{"name":"Leatherman Family Cemetery","PlaceName":"Ellerton"},"geometry":{"type":"Point","coordinates":[-77.5439,39.54844]}},{"type":"Feature","properties":{"name":"Harshman Family Cemetery","PlaceName":"Ellerton"},"geometry":{"type":"Point","coordinates":[-77.53478,39.55215]}},{"type":"Feature","properties":{"name":"Blickenstaff Family Cemetery","PlaceName":"Ellerton"},"geometry":{"type":"Point","coordinates":[-77.50663,39.55576]}},{"type":"Feature","properties":{"name":"Pine Bank Cemetery","PlaceName":"Gettysburg"},"geometry":{"type":"Point","coordinates":[-77.22764,39.76786]}},{"type":"Feature","properties":{"name":"Lichlider Family Cemetery","PlaceName":"Lewistown"},"geometry":{"type":"Point","coordinates":[-77.41848,39.56228]}},{"type":"Feature","properties":{"name":"Sunrise Cemetery","PlaceName":"Harney"},"geometry":{"type":"Point","coordinates":[-77.20292,39.71271]}},{"type":"Feature","properties":{"name":"Norris Family Cemetery","PlaceName":"Libertytown"},"geometry":{"type":"Point","coordinates":[-77.20245,39.50849]}},{"type":"Feature","properties":{"name":"Flook Family Cemetery","PlaceName":"Middletown"},"geometry":{"type":"Point","coordinates":[-77.56967,39.43948]}},{"type":"Feature","properties":{"name":"Shaff Family Cemetery","PlaceName":"Jefferson"},"geometry":{"type":"Point","coordinates":[-77.57603,39.3672]}},{"type":"Feature","properties":{"name":"Johnson Family Cemetery","PlaceName":"Urbana"},"geometry":{"type":"Point","coordinates":[-77.34945,39.29776]}},{"type":"Feature","properties":{"name":"Methodist Cemetery","PlaceName":"Dickerson"},"geometry":{"type":"Point","coordinates":[-77.41665,39.22715]}},{"type":"Feature","properties":{"name":"Nusbaum Family Cemetery","PlaceName":"Unionville"},"geometry":{"type":"Point","coordinates":[-77.14868,39.46622]}},{"type":"Feature","properties":{"name":"Higgins Family Cemetery","PlaceName":"New London"},"geometry":{"type":"Point","coordinates":[-77.22987,39.4172]}},{"type":"Feature","properties":{"name":"Sunnyside Methodist Episcopal Church of Mountville Cemetery","PlaceName":"Mountville"},"geometry":{"type":"Point","coordinates":[-77.51244,39.33948]}},{"type":"Feature","properties":{"name":"Flickinger Cemetery","PlaceName":"Mount Airy"},"geometry":{"type":"Point","coordinates":[-77.1197,39.46024]}}]}
