{"type":"FeatureCollection","features":[{"type":"Feature","properties":{"name":"Brunswick Farmer's Market","Address":"67 E Potomac St., Brunswick, MD","Location":"At the corner of 1st Ave and E Potomac St."},"geometry":{"type":"Point","coordinates":[-77.62597,39.31268]}},{"type":"Feature","properties":{"name":"Emmitsburg Farmer's Market","Address":"302 S. Seton Ave., Emmitsburg, MD","Location":"Near Emmitsburg Town Center"},"geometry":{"type":"Point","coordinates":[-77.32885,39.70088]}},{"type":"Feature","properties":{"name":"Everedy Square & Shab Row Farmer's Market","Address":"Shab Row, E. & Church St., Frederick, MD","Location":"Downtown Shab Row Market Parking Lot"},"geometry":{"type":"Point","coordinates":[-77.40537,39.41543]}},{"type":"Feature","properties":{"name":"Farmers Market at NCI","Address":"549 Sultam St., Frederick, MD","Location":"NCI Café/Scientific Library Parking Lot"},"geometry":{"type":"Point","coordinates":[-77.43368,39.43634]}},{"type":"Feature","properties":{"name":"Field Fresh Farmers Market","Address":"797 E. Patrick St., Frederick, MD","Location":"Frederick Fairgrounds, Lot A"},"geometry":{"type":"Point","coordinates":[-77.39363,39.4111]}},{"type":"Feature","properties":{"name":"Middletown Farmer's Market","Address":"12 S. Church St., Middletown, MD","Location":"Christ Reformed Church Parking Lot"},"geometry":{"type":"Point","coordinates":[-77.54525,39.44236]}},{"type":"Feature","properties":{"name":"Thurmont Farmer's Market","Address":"South Center St., Thurmont, MD","Location":"Municipal Parking Lot on South Center St."},"geometry":{"type":"Point","coordinates":[-77.41086,39.62235]}},{"type":"Feature","properties":{"name":"Frederick Farmer's Market","Address":"1215 West Patrick St., Frederick, MD","Location":"Wolf Furniture Parking Lot"},"geometry":{"type":"Point","coordinates":[-77.45164,39.4206]}},{"type":"Feature","properties":{"name":"Urbana Farmers' Market","Address":"9020 Amelung St., Frederick, MD","Location":"Urbana Regional Library"},"geometry":{"type":"Point","coordinates":[-77.3546,39.33157]}},{"type":"Feature","properties":{"name":"Frederick City Market","Address":"331 N. Market St, Frederick MD","Location":"Parking lot of the old Carmack Jay building"},"geometry":{"type":"Point","coordinates":[-77.41093,39.41852]}},{"type":"Feature","properties":{"name":"Linganore Farmer's Market","Address":"6718 Coldstream Dr., New Market, MD","Location":"Lake Linganore"},"geometry":{"type":"Point","coordinates":[-77.31146,39.41793]}},{"type":"Feature","properties":{"name":"YMCA of Frederick County Farmer's Market","Address":"1000 N. Market St, Frederick, MD","Location":"YMCA of Frederick County"},"geometry":{"type":"Point","coordinates":[-77.40585,39.42659]}},{"type":"Feature","properties":{"name":"Myersville Farmer's Market","Address":"301 Main St, Myersville, MD","Location":"Myersville Municipal Center"},"geometry":{"type":"Point","coordinates":[-77.56515,39.50601]}},{"type":"Feature","properties":{"name":"Jefferson Farmers Market","Address":"4603 Lander Rd, Jefferson, MD","Location":"Jefferson Ruritan Center"},"geometry":{"type":"Point","coordinates":[-77.53099,39.36082]}},{"type":"Feature","properties":{"name":"Key City Food & Farm Market","Address":"121 N. Bentz St, Frederick, MD","Location":"Baker Park"},"geometry":{"type":"Point","coordinates":[-77.41466,39.41667]}},{"type":"Feature","properties":{"name":"New Market Farmers Market","Address":"Main St., New Market, MD","Location":"Sidewalks of Downtown New Market"},"geometry":{"type":"Point","coordinates":[-77.26642,39.38353]}}]}
