{
  "type": "FeatureCollection",
  "features": [
    {
      "type": "Feature",
      "geometry": {
        "type": "Point",
        "coordinates": [
          -77.55065522042601,
          39.43378491819159
        ]
      },
      "properties": {
        "external_id": "22611189",
        "summary": "Animal Carcass in Public Ways",
        "description": "Dead deer near mailbox of 7303 Countryside Drive",
        "address": "7303 Countryside Dr Middletown, Maryland, 21769",
        "status": "acknowledged",
        "status_raw": "Acknowledged",
        "category": "Animal Carcass in Public Ways",
        "reported_at": "2026-08-26T01:35:58.000Z",
        "url": "https://seeclickfix.com/issues/22611189",
        "source": "seeclickfix"
      }
    },
    {
      "type": "Feature",
      "geometry": {
        "type": "Point",
        "coordinates": [
          -77.4639310373306,
          39.4336292158612
        ]
      },
      "properties": {
        "external_id": "22610368",
        "summary": "Roadway General Request",
        "description": "Horrible to cross from kemp ln to bowers rd. Should seriously consider a traffic circle or a light to avoid someone getting killed.",
        "address": "7301-7307 Kemp Ln Frederick, Maryland, 21702",
        "status": "acknowledged",
        "status_raw": "Acknowledged",
        "category": "Roadway General Request",
        "reported_at": "2026-08-25T23:19:15.000Z",
        "url": "https://seeclickfix.com/issues/22610368",
        "source": "seeclickfix"
      }
    },
    {
      "type": "Feature",
      "geometry": {
        "type": "Point",
        "coordinates": [
          -77.45295257189,
          39.396569127867
        ]
      },
      "properties": {
        "external_id": "22610286",
        "summary": "Roadway General Request",
        "description": "cap needs to be reset and sealed with tar",
        "address": "5984 Forum Sq Frederick, Maryland, 21703",
        "status": "acknowledged",
        "status_raw": "Acknowledged",
        "category": "Roadway General Request",
        "reported_at": "2026-08-25T23:11:35.000Z",
        "url": "https://seeclickfix.com/issues/22610286",
        "source": "seeclickfix"
      }
    },
    {
      "type": "Feature",
      "geometry": {
        "type": "Point",
        "coordinates": [
          -77.43499270986533,
          39.37797851383657
        ]
      },
      "properties": {
        "external_id": "22608551",
        "summary": "Roadway General Request",
        "description": "Does the HOA own this street or does the City own Serviceberry Dr.  This is in reference to parking on the street I live on",
        "address": "Serviceberry Dr Frederick, Maryland, 21703",
        "status": "acknowledged",
        "status_raw": "Acknowledged",
        "category": "Roadway General Request",
        "reported_at": "2026-08-25T20:21:54.000Z",
        "url": "https://seeclickfix.com/issues/22608551",
        "source": "seeclickfix"
      }
    },
    {
      "type": "Feature",
      "geometry": {
        "type": "Point",
        "coordinates": [
          -77.3382871,
          39.3459679
        ]
      },
      "properties": {
        "external_id": "22606559",
        "summary": "Roadway Pavement Maintenance",
        "description": "sidewalk lift it sure whatever",
        "address": "4107 Brushfield Dr Urbana, Maryland, 21704",
        "status": "acknowledged",
        "status_raw": "Acknowledged",
        "category": "Roadway Pavement Maintenance",
        "reported_at": "2026-08-25T17:58:01.000Z",
        "url": "https://seeclickfix.com/issues/22606559",
        "source": "seeclickfix"
      }
    },
    {
      "type": "Feature",
      "geometry": {
        "type": "Point",
        "coordinates": [
          -77.56512175666408,
          39.449683809592564
        ]
      },
      "properties": {
        "external_id": "22606460",
        "summary": "Animal Carcass in Public Ways",
        "description": "Constituent Don Smith reported a deceased deer on Marker Rd before you get to Picnic Woods Rd. 301.676.0635",
        "address": "Marker Rd Middletown, Maryland, 21769",
        "status": "closed",
        "status_raw": "Closed",
        "category": "Animal Carcass in Public Ways",
        "reported_at": "2026-08-25T17:52:08.000Z",
        "url": "https://seeclickfix.com/issues/22606460",
        "source": "seeclickfix"
      }
    },
    {
      "type": "Feature",
      "geometry": {
        "type": "Point",
        "coordinates": [
          -77.33106511520793,
          39.45434619611908
        ]
      },
      "properties": {
        "external_id": "22605932",
        "summary": "Roadway Sign Maintenance",
        "description": "Constituent at 9535 Liberty Road found a county street sign in the stream behind his home. He removed the sign from the stream and placed it on his porch for us to pick up. Please call before stopping",
        "address": "8001-8031 Crum Rd Walkersville, MD, 21793, USA",
        "status": "acknowledged",
        "status_raw": "Acknowledged",
        "category": "Roadway Sign Maintenance",
        "reported_at": "2026-08-25T17:17:18.000Z",
        "url": "https://seeclickfix.com/issues/22605932",
        "source": "seeclickfix"
      }
    },
    {
      "type": "Feature",
      "geometry": {
        "type": "Point",
        "coordinates": [
          -77.513590276946,
          39.474730458797
        ]
      },
      "properties": {
        "external_id": "22605477",
        "summary": "Roadway Tree Maintenance",
        "description": "A large tree limb is hanging on the phone/cable tv over head lines in front of 8833 Hawbottom Road.  This limb is over the travel lane of Hawbottom Road.",
        "address": "8833 Hawbottom Road 21769 Middletown, Maryland",
        "status": "closed",
        "status_raw": "Closed",
        "category": "Roadway Tree Maintenance",
        "reported_at": "2026-08-25T16:42:07.000Z",
        "url": "https://seeclickfix.com/issues/22605477",
        "source": "seeclickfix"
      }
    },
    {
      "type": "Feature",
      "geometry": {
        "type": "Point",
        "coordinates": [
          -77.31128227306108,
          39.448910591665886
        ]
      },
      "properties": {
        "external_id": "22604262",
        "summary": "Roadway Sign Maintenance",
        "description": "People turning left onto Kelly Road from McKaig Road do NOT yield at the yield sign. I am almost hit at least three times a month and have to slam on my brakes. This triangle intersection needs to cha",
        "address": "Mckaig Rd Frederick, Maryland, 21701",
        "status": "acknowledged",
        "status_raw": "Acknowledged",
        "category": "Roadway Sign Maintenance",
        "reported_at": "2026-08-25T15:23:48.000Z",
        "url": "https://seeclickfix.com/issues/22604262",
        "source": "seeclickfix"
      }
    },
    {
      "type": "Feature",
      "geometry": {
        "type": "Point",
        "coordinates": [
          -77.55236085390317,
          39.36014356311961
        ]
      },
      "properties": {
        "external_id": "22603792",
        "summary": "Roadway Drainage Maintenance",
        "description": "Ever since work was done on behalf of the \"Save the Bay\" campaign, drainage has been poor. The rainwater pools in the culvert and the growth of algae have increased. Constituent would like the to be t",
        "address": "3325 Brockton Dr Jefferson, Maryland, 21755",
        "status": "acknowledged",
        "status_raw": "Acknowledged",
        "category": "Roadway Drainage Maintenance",
        "reported_at": "2026-08-25T14:55:13.000Z",
        "url": "https://seeclickfix.com/issues/22603792",
        "source": "seeclickfix"
      }
    },
    {
      "type": "Feature",
      "geometry": {
        "type": "Point",
        "coordinates": [
          -77.49287666635949,
          39.39046106559206
        ]
      },
      "properties": {
        "external_id": "22602792",
        "summary": "Roadway Mowing Request",
        "description": "High grass is obstructing view of oncoming traffic at the intersection of Mt. Zion Rd and Stone Rd. The grass is on Mt. Zion Rd.",
        "address": "5666-5698 Stone Rd Braddock Heights, MD, 21703, USA",
        "status": "acknowledged",
        "status_raw": "Acknowledged",
        "category": "Roadway Mowing Request",
        "reported_at": "2026-08-25T13:51:52.000Z",
        "url": "https://seeclickfix.com/issues/22602792",
        "source": "seeclickfix"
      }
    },
    {
      "type": "Feature",
      "geometry": {
        "type": "Point",
        "coordinates": [
          -77.4162166181096,
          39.53909543576135
        ]
      },
      "properties": {
        "external_id": "22602130",
        "summary": "Roadway Drainage Maintenance",
        "description": "Two drainage collection areas on the side of the driveway are clogged and filled with debris need to be cleaned out.",
        "address": "11118 Hessong Bridge Rd Thurmont, Maryland, 21788",
        "status": "acknowledged",
        "status_raw": "Acknowledged",
        "category": "Roadway Drainage Maintenance",
        "reported_at": "2026-08-25T13:07:15.000Z",
        "url": "https://seeclickfix.com/issues/22602130",
        "source": "seeclickfix"
      }
    },
    {
      "type": "Feature",
      "geometry": {
        "type": "Point",
        "coordinates": [
          -77.60871076173746,
          39.386549819428
        ]
      },
      "properties": {
        "external_id": "22602080",
        "summary": "Animal Carcass in Public Ways",
        "description": "Deer in ditch",
        "address": "39.38655 -77.60871",
        "status": "closed",
        "status_raw": "Closed",
        "category": "Animal Carcass in Public Ways",
        "reported_at": "2026-08-25T13:01:42.000Z",
        "url": "https://seeclickfix.com/issues/22602080",
        "source": "seeclickfix"
      }
    },
    {
      "type": "Feature",
      "geometry": {
        "type": "Point",
        "coordinates": [
          -77.466258741649,
          39.359018210349
        ]
      },
      "properties": {
        "external_id": "22599304",
        "summary": "Roadway General Request",
        "description": "The vegetation on the corner of Renn Road and Ballenger Creek is high, making people turning left onto Ballenger Creek from Renn road take a risk for an accident to happen.",
        "address": "5798 S Renn Rd Frederick, Maryland, 21703",
        "status": "closed",
        "status_raw": "Closed",
        "category": "Roadway General Request",
        "reported_at": "2026-08-24T23:09:12.000Z",
        "url": "https://seeclickfix.com/issues/22599304",
        "source": "seeclickfix"
      }
    },
    {
      "type": "Feature",
      "geometry": {
        "type": "Point",
        "coordinates": [
          -77.54285753134681,
          39.56240150613884
        ]
      },
      "properties": {
        "external_id": "22599135",
        "summary": "Gravel Road Maintenance",
        "description": "Ditch is clogged with trees and debris.",
        "address": "11820-12014 Wildcat Rd Myersville, Maryland, 21773",
        "status": "acknowledged",
        "status_raw": "Acknowledged",
        "category": "Gravel Road Maintenance",
        "reported_at": "2026-08-24T22:46:46.000Z",
        "url": "https://seeclickfix.com/issues/22599135",
        "source": "seeclickfix"
      }
    },
    {
      "type": "Feature",
      "geometry": {
        "type": "Point",
        "coordinates": [
          -77.4011892506874,
          39.50041570085905
        ]
      },
      "properties": {
        "external_id": "22598962",
        "summary": "Animal Carcass in Public Ways",
        "description": "A sheep carcass has been left on the edge of Hansonville ct.",
        "address": "9620-9748 Old Frederick Rd Frederick, Maryland, 21702",
        "status": "closed",
        "status_raw": "Closed",
        "category": "Animal Carcass in Public Ways",
        "reported_at": "2026-08-24T22:24:24.000Z",
        "url": "https://seeclickfix.com/issues/22598962",
        "source": "seeclickfix"
      }
    },
    {
      "type": "Feature",
      "geometry": {
        "type": "Point",
        "coordinates": [
          -77.46198725768458,
          39.3785376496428
        ]
      },
      "properties": {
        "external_id": "22596916",
        "summary": "Roadway Mowing Request",
        "description": "It’s becoming very difficult to pull out of driveway at location 5805 Elmer derr rd due to overgrown brush .. not much of a clear site to right . Requesting for it too be cleared out . We would try it",
        "address": "5805 Elmer Derr Rd Frederick, Maryland, 21703",
        "status": "acknowledged",
        "status_raw": "Acknowledged",
        "category": "Roadway Mowing Request",
        "reported_at": "2026-08-24T19:42:07.000Z",
        "url": "https://seeclickfix.com/issues/22596916",
        "source": "seeclickfix"
      }
    },
    {
      "type": "Feature",
      "geometry": {
        "type": "Point",
        "coordinates": [
          -77.36240642374574,
          39.3943607592022
        ]
      },
      "properties": {
        "external_id": "22596798",
        "summary": "Roadway Sign Maintenance",
        "description": "The sign at Riverwood and River Oaks has fallen down, needs to be reinstalled",
        "address": "River Oaks Ter & Riverwood Ct Bartonsville, MD, 21704, USA",
        "status": "acknowledged",
        "status_raw": "Acknowledged",
        "category": "Roadway Sign Maintenance",
        "reported_at": "2026-08-24T19:34:44.000Z",
        "url": "https://seeclickfix.com/issues/22596798",
        "source": "seeclickfix"
      }
    },
    {
      "type": "Feature",
      "geometry": {
        "type": "Point",
        "coordinates": [
          -77.17751305899964,
          39.54228394814995
        ]
      },
      "properties": {
        "external_id": "22596539",
        "summary": "Noxious Weed",
        "description": "Johnson grass both sides of road (Clemsonville) north of Fountain School Rd.",
        "address": "39.54228 -77.17751",
        "status": "acknowledged",
        "status_raw": "Acknowledged",
        "category": "Noxious Weed",
        "reported_at": "2026-08-24T19:15:40.000Z",
        "url": "https://seeclickfix.com/issues/22596539",
        "source": "seeclickfix"
      }
    },
    {
      "type": "Feature",
      "geometry": {
        "type": "Point",
        "coordinates": [
          -77.26326255931671,
          39.4764906237423
        ]
      },
      "properties": {
        "external_id": "22596531",
        "summary": "Animal Carcass in Public Ways",
        "description": "Deceased deer on the side of the road 11523 Liberty Rd at Artie Kemp Rd.",
        "address": "11523 Liberty Rd Frederick, Maryland, 21701",
        "status": "closed",
        "status_raw": "Closed",
        "category": "Animal Carcass in Public Ways",
        "reported_at": "2026-08-24T19:15:14.000Z",
        "url": "https://seeclickfix.com/issues/22596531",
        "source": "seeclickfix"
      }
    }
  ]
}