{"type":"FeatureCollection","name":"public_utilities","features":[{"type":"Feature","geometry":{"type":"Point","coordinates":[-77.3506583,39.3746531]},"properties":{"amenity":"recycling","name":"Frederick County Recycling Facility","_osm_type":"n","_osm_id":"1760069549"}},{"type":"Feature","geometry":{"type":"Point","coordinates":[-77.3999663,39.4287566]},"properties":{"amenity":"waste_basket","_osm_type":"n","_osm_id":"3177115261"}},{"type":"Feature","geometry":{"type":"Point","coordinates":[-77.4007175,39.42929]},"properties":{"amenity":"waste_basket","_osm_type":"n","_osm_id":"3177133962"}},{"type":"Feature","geometry":{"type":"Point","coordinates":[-77.6230512,39.5004176]},"properties":{"amenity":"bench","backrest":"yes","material":"wood","seats":"6","_osm_type":"n","_osm_id":"4173183053"}},{"type":"Feature","geometry":{"type":"Point","coordinates":[-77.3953225,39.377102]},"properties":{"amenity":"bench","backrest":"yes","colour":"brown","material":"wood","seats":"3","_osm_type":"n","_osm_id":"4201098019"}},{"type":"Feature","geometry":{"type":"Point","coordinates":[-77.3952943,39.3771046]},"properties":{"amenity":"bench","backrest":"yes","colour":"brown","material":"wood","seats":"3","_osm_type":"n","_osm_id":"4201098021"}},{"type":"Feature","geometry":{"type":"Point","coordinates":[-77.3952668,39.3771062]},"properties":{"amenity":"bench","backrest":"yes","colour":"brown","material":"wood","seats":"3","_osm_type":"n","_osm_id":"4201098022"}},{"type":"Feature","geometry":{"type":"Point","coordinates":[-77.395421,39.3771746]},"properties":{"amenity":"bench","backrest":"yes","colour":"brown","material":"wood","seats":"3","_osm_type":"n","_osm_id":"4201098036"}},{"type":"Feature","geometry":{"type":"Point","coordinates":[-77.3953915,39.3771829]},"properties":{"amenity":"bench","backrest":"yes","colour":"brown","material":"wood","seats":"3","_osm_type":"n","_osm_id":"4201098040"}},{"type":"Feature","geometry":{"type":"Point","coordinates":[-77.3953694,39.3771953]},"properties":{"amenity":"bench","backrest":"yes","colour":"brown","material":"wood","seats":"3","_osm_type":"n","_osm_id":"4201098043"}},{"type":"Feature","geometry":{"type":"Point","coordinates":[-77.5974313,39.5561177]},"properties":{"access":"yes","amenity":"drinking_water","bottle":"yes","covered":"no","fee":"no","indoor":"no","lit":"no","name":"Annapolis Rock Spring","natural":"spring","wheelchair":"no","_osm_type":"n","_osm_id":"4216323017"}},{"type":"Feature","geometry":{"type":"Point","coordinates":[-77.6281197,39.3130979]},"properties":{"amenity":"bench","backrest":"yes","colour":"red","material":"metal","seats":"2","_osm_type":"n","_osm_id":"4287064848"}},{"type":"Feature","geometry":{"type":"Point","coordinates":[-77.6287325,39.3131696]},"properties":{"amenity":"bench","backrest":"yes","check_date":"2022-08-17","colour":"red","material":"metal","seats":"2","_osm_type":"n","_osm_id":"4287075622"}},{"type":"Feature","geometry":{"type":"Point","coordinates":[-77.6259638,39.312607]},"properties":{"amenity":"bench","_osm_type":"n","_osm_id":"4306954971"}},{"type":"Feature","geometry":{"type":"Point","coordinates":[-77.6261677,39.3128197]},"properties":{"amenity":"bench","_osm_type":"n","_osm_id":"4306954972"}},{"type":"Feature","geometry":{"type":"Point","coordinates":[-77.6262763,39.312857]},"properties":{"amenity":"bench","_osm_type":"n","_osm_id":"4306954973"}},{"type":"Feature","geometry":{"type":"Point","coordinates":[-77.6264979,39.3129353]},"properties":{"amenity":"drinking_water","indoor":"no","_osm_type":"n","_osm_id":"4306954975"}},{"type":"Feature","geometry":{"type":"Point","coordinates":[-77.6253363,39.311931]},"properties":{"amenity":"bench","_osm_type":"n","_osm_id":"4313157323"}},{"type":"Feature","geometry":{"type":"Point","coordinates":[-77.628998,39.3133994]},"properties":{"amenity":"bench","backrest":"yes","colour":"red","material":"metal","seats":"2","_osm_type":"n","_osm_id":"4316439254"}},{"type":"Feature","geometry":{"type":"Point","coordinates":[-77.624707,39.3130272]},"properties":{"amenity":"bench","colour":"gray","material":"stone","seats":"3","_osm_type":"n","_osm_id":"4324619608"}},{"type":"Feature","geometry":{"type":"Point","coordinates":[-77.6250339,39.3130949]},"properties":{"amenity":"bench","colour":"gray","material":"stone","seats":"3","_osm_type":"n","_osm_id":"4324619626"}},{"type":"Feature","geometry":{"type":"Point","coordinates":[-77.6286229,39.3123075]},"properties":{"amenity":"bench","backrest":"yes","material":"wood","seats":"4","_osm_type":"n","_osm_id":"4324653539"}},{"type":"Feature","geometry":{"type":"Point","coordinates":[-77.6286547,39.312337]},"properties":{"amenity":"bench","backrest":"yes","material":"wood","seats":"4","_osm_type":"n","_osm_id":"4324653549"}},{"type":"Feature","geometry":{"type":"Point","coordinates":[-77.6266137,39.3129459]},"properties":{"amenity":"bench","backrest":"yes","_osm_type":"n","_osm_id":"4324733791"}},{"type":"Feature","geometry":{"type":"Point","coordinates":[-77.6266781,39.3130844]},"properties":{"amenity":"bench","backrest":"yes","_osm_type":"n","_osm_id":"4324733801"}},{"type":"Feature","geometry":{"type":"Point","coordinates":[-77.6267063,39.3131441]},"properties":{"amenity":"bench","backrest":"yes","_osm_type":"n","_osm_id":"4324733802"}},{"type":"Feature","geometry":{"type":"Point","coordinates":[-77.626282,39.3126043]},"properties":{"amenity":"waste_basket","_osm_type":"n","_osm_id":"4324756074"}},{"type":"Feature","geometry":{"type":"Point","coordinates":[-77.6265187,39.3129296]},"properties":{"amenity":"waste_basket","_osm_type":"n","_osm_id":"4324756690"}},{"type":"Feature","geometry":{"type":"Point","coordinates":[-77.6267232,39.3129696]},"properties":{"amenity":"waste_basket","_osm_type":"n","_osm_id":"4324756696"}},{"type":"Feature","geometry":{"type":"Point","coordinates":[-77.6266615,39.3130827]},"properties":{"amenity":"waste_basket","_osm_type":"n","_osm_id":"4324756704"}},{"type":"Feature","geometry":{"type":"Point","coordinates":[-77.6265287,39.3129321]},"properties":{"amenity":"waste_basket","waste":"dog_excrement","_osm_type":"n","_osm_id":"4326776171"}},{"type":"Feature","geometry":{"type":"Point","coordinates":[-77.6267316,39.3129718]},"properties":{"amenity":"recycling","recycling:cans":"yes","recycling:cardboard":"yes","recycling:glass":"yes","recycling:glass_bottles":"yes","recycling:paper":"yes","recycling:plastic":"yes","recycling:plastic_bottles":"yes","recycling:plastic_packaging":"yes","recycling_type":"container","_osm_type":"n","_osm_id":"4326776174"}},{"type":"Feature","geometry":{"type":"Point","coordinates":[-77.6269757,39.3130141]},"properties":{"amenity":"waste_basket","_osm_type":"n","_osm_id":"4326776176"}},{"type":"Feature","geometry":{"type":"Point","coordinates":[-77.6266699,39.3130844]},"properties":{"amenity":"recycling","recycling:cans":"yes","recycling:cardboard":"yes","recycling:glass":"yes","recycling:glass_bottles":"yes","recycling:paper":"yes","recycling:plastic":"yes","recycling:plastic_bottles":"yes","recycling:plastic_packaging":"yes","recycling_type":"container","_osm_type":"n","_osm_id":"4326776177"}},{"type":"Feature","geometry":{"type":"Point","coordinates":[-77.6269502,39.3130937]},"properties":{"amenity":"bench","backrest":"yes","_osm_type":"n","_osm_id":"4326776178"}},{"type":"Feature","geometry":{"type":"Point","coordinates":[-77.6268236,39.3129838]},"properties":{"amenity":"waste_basket","_osm_type":"n","_osm_id":"4327472522"}},{"type":"Feature","geometry":{"type":"Point","coordinates":[-77.6264324,39.3130698]},"properties":{"amenity":"bench","backrest":"yes","_osm_type":"n","_osm_id":"4339327493"}},{"type":"Feature","geometry":{"type":"Point","coordinates":[-77.3825446,39.4496277]},"properties":{"amenity":"waste_basket","_osm_type":"n","_osm_id":"4514383623"}},{"type":"Feature","geometry":{"type":"Point","coordinates":[-77.3549119,39.6805317]},"properties":{"amenity":"drinking_water","name":"Outdoor Water Fountain","_osm_type":"n","_osm_id":"4631186177"}},{"type":"Feature","geometry":{"type":"Point","coordinates":[-77.355505,39.6798645]},"properties":{"amenity":"bench","backrest":"no","_osm_type":"n","_osm_id":"4633857916"}},{"type":"Feature","geometry":{"type":"Point","coordinates":[-77.3555576,39.6798514]},"properties":{"amenity":"bench","backrest":"no","_osm_type":"n","_osm_id":"4633857917"}},{"type":"Feature","geometry":{"type":"Point","coordinates":[-77.3549329,39.6804076]},"properties":{"amenity":"bench","backrest":"no","_osm_type":"n","_osm_id":"4633857919"}},{"type":"Feature","geometry":{"type":"Point","coordinates":[-77.3548064,39.6802412]},"properties":{"amenity":"bench","backrest":"yes","_osm_type":"n","_osm_id":"4633857920"}},{"type":"Feature","geometry":{"type":"Point","coordinates":[-77.3547916,39.6802845]},"properties":{"amenity":"bench","backrest":"yes","_osm_type":"n","_osm_id":"4633857921"}},{"type":"Feature","geometry":{"type":"Point","coordinates":[-77.3546065,39.681123]},"properties":{"amenity":"bench","backrest":"yes","_osm_type":"n","_osm_id":"4640911186"}},{"type":"Feature","geometry":{"type":"Point","coordinates":[-77.354625,39.6811013]},"properties":{"amenity":"bench","backrest":"yes","_osm_type":"n","_osm_id":"4640911187"}},{"type":"Feature","geometry":{"type":"Point","coordinates":[-77.352976,39.6804468]},"properties":{"amenity":"waste_basket","_osm_type":"n","_osm_id":"4640994395"}},{"type":"Feature","geometry":{"type":"Point","coordinates":[-77.3558122,39.6814028]},"properties":{"amenity":"bench","backrest":"yes","_osm_type":"n","_osm_id":"4641069672"}},{"type":"Feature","geometry":{"type":"Point","coordinates":[-77.3558525,39.6813814]},"properties":{"amenity":"bench","backrest":"yes","_osm_type":"n","_osm_id":"4641069673"}},{"type":"Feature","geometry":{"type":"Point","coordinates":[-77.3545143,39.6811902]},"properties":{"amenity":"waste_basket","_osm_type":"n","_osm_id":"4641112667"}},{"type":"Feature","geometry":{"type":"Point","coordinates":[-77.3513345,39.6807538]},"properties":{"amenity":"bench","backrest":"no","_osm_type":"n","_osm_id":"4641228890"}},{"type":"Feature","geometry":{"type":"Point","coordinates":[-77.3513474,39.6807213]},"properties":{"amenity":"bench","backrest":"no","_osm_type":"n","_osm_id":"4641228891"}},{"type":"Feature","geometry":{"type":"Point","coordinates":[-77.351286,39.6807438]},"properties":{"amenity":"bench","backrest":"no","_osm_type":"n","_osm_id":"4641228892"}},{"type":"Feature","geometry":{"type":"Point","coordinates":[-77.3513034,39.6807122]},"properties":{"amenity":"bench","backrest":"no","_osm_type":"n","_osm_id":"4641228893"}},{"type":"Feature","geometry":{"type":"Point","coordinates":[-77.3520837,39.6810901]},"properties":{"amenity":"bench","backrest":"yes","_osm_type":"n","_osm_id":"4641272982"}},{"type":"Feature","geometry":{"type":"Point","coordinates":[-77.3520502,39.6810932]},"properties":{"amenity":"bench","backrest":"yes","_osm_type":"n","_osm_id":"4641272983"}},{"type":"Feature","geometry":{"type":"Point","coordinates":[-77.3492891,39.681406]},"properties":{"amenity":"bench","_osm_type":"n","_osm_id":"4641286111"}},{"type":"Feature","geometry":{"type":"Point","coordinates":[-77.4024298,39.6155424]},"properties":{"amenity":"bench","backrest":"no","_osm_type":"n","_osm_id":"4642698611"}},{"type":"Feature","geometry":{"type":"Point","coordinates":[-77.353883,39.6814454]},"properties":{"amenity":"waste_basket","_osm_type":"n","_osm_id":"4643320773"}},{"type":"Feature","geometry":{"type":"Point","coordinates":[-77.3549293,39.6805397]},"properties":{"amenity":"bench","backrest":"no","_osm_type":"n","_osm_id":"4652809539"}},{"type":"Feature","geometry":{"type":"Point","coordinates":[-77.3549087,39.6805467]},"properties":{"amenity":"bench","backrest":"no","_osm_type":"n","_osm_id":"4652809540"}},{"type":"Feature","geometry":{"type":"Point","coordinates":[-77.3549156,39.6805204]},"properties":{"amenity":"bench","backrest":"no","_osm_type":"n","_osm_id":"4652809541"}},{"type":"Feature","geometry":{"type":"Point","coordinates":[-77.3549175,39.6804357]},"properties":{"amenity":"bench","_osm_type":"n","_osm_id":"4652809542"}},{"type":"Feature","geometry":{"type":"Point","coordinates":[-77.3548454,39.6804276]},"properties":{"amenity":"bench","_osm_type":"n","_osm_id":"4652809543"}},{"type":"Feature","geometry":{"type":"Point","coordinates":[-77.3547999,39.6804182]},"properties":{"amenity":"bench","_osm_type":"n","_osm_id":"4652809544"}},{"type":"Feature","geometry":{"type":"Point","coordinates":[-77.3546951,39.6802473]},"properties":{"amenity":"bench","backrest":"yes","_osm_type":"n","_osm_id":"4653442015"}},{"type":"Feature","geometry":{"type":"Point","coordinates":[-77.3546807,39.6802743]},"properties":{"amenity":"bench","backrest":"yes","_osm_type":"n","_osm_id":"4653442016"}},{"type":"Feature","geometry":{"type":"Point","coordinates":[-77.3548019,39.6800276]},"properties":{"amenity":"waste_basket","_osm_type":"n","_osm_id":"4653442017"}},{"type":"Feature","geometry":{"type":"Point","coordinates":[-77.3548193,39.6799975]},"properties":{"amenity":"recycling","recycling_type":"container","_osm_type":"n","_osm_id":"4653442018"}},{"type":"Feature","geometry":{"type":"Point","coordinates":[-77.3499538,39.6808099]},"properties":{"amenity":"waste_basket","_osm_type":"n","_osm_id":"4653536103"}},{"type":"Feature","geometry":{"type":"Point","coordinates":[-77.3555395,39.6798056]},"properties":{"amenity":"bench","backrest":"no","_osm_type":"n","_osm_id":"4712716574"}},{"type":"Feature","geometry":{"type":"Point","coordinates":[-77.3549107,39.6803965]},"properties":{"amenity":"bench","_osm_type":"n","_osm_id":"4712716575"}},{"type":"Feature","geometry":{"type":"Point","coordinates":[-77.3548709,39.6802732]},"properties":{"amenity":"bench","_osm_type":"n","_osm_id":"4712716576"}},{"type":"Feature","geometry":{"type":"Point","coordinates":[-77.3548548,39.6803126]},"properties":{"amenity":"bench","_osm_type":"n","_osm_id":"4712716577"}},{"type":"Feature","geometry":{"type":"Point","coordinates":[-77.3546846,39.6808195]},"properties":{"amenity":"bench","_osm_type":"n","_osm_id":"4712716579"}},{"type":"Feature","geometry":{"type":"Point","coordinates":[-77.3547053,39.680768]},"properties":{"amenity":"bench","_osm_type":"n","_osm_id":"4712716580"}},{"type":"Feature","geometry":{"type":"Point","coordinates":[-77.3534824,39.681176]},"properties":{"amenity":"bench","backrest":"yes","_osm_type":"n","_osm_id":"4712716584"}},{"type":"Feature","geometry":{"type":"Point","coordinates":[-77.3534187,39.6812105]},"properties":{"amenity":"bench","backrest":"yes","_osm_type":"n","_osm_id":"4712716585"}},{"type":"Feature","geometry":{"type":"Point","coordinates":[-77.3534489,39.6812183]},"properties":{"amenity":"bench","backrest":"yes","_osm_type":"n","_osm_id":"4712716586"}},{"type":"Feature","geometry":{"type":"Point","coordinates":[-77.3534776,39.6812079]},"properties":{"amenity":"bench","backrest":"yes","_osm_type":"n","_osm_id":"4712716587"}},{"type":"Feature","geometry":{"type":"Point","coordinates":[-77.3530319,39.6812093]},"properties":{"amenity":"bench","backrest":"yes","_osm_type":"n","_osm_id":"4713599482"}},{"type":"Feature","geometry":{"type":"Point","coordinates":[-77.4230544,39.4173537]},"properties":{"amenity":"drinking_water","_osm_type":"n","_osm_id":"4781850759"}},{"type":"Feature","geometry":{"type":"Point","coordinates":[-77.3552904,39.6814097]},"properties":{"amenity":"bench","_osm_type":"n","_osm_id":"4804028934"}},{"type":"Feature","geometry":{"type":"Point","coordinates":[-77.3553018,39.6813745]},"properties":{"amenity":"bench","_osm_type":"n","_osm_id":"4804028935"}},{"type":"Feature","geometry":{"type":"Point","coordinates":[-77.354178,39.6816459]},"properties":{"amenity":"waste_basket","_osm_type":"n","_osm_id":"4804414660"}},{"type":"Feature","geometry":{"type":"Point","coordinates":[-77.3526201,39.6803706]},"properties":{"amenity":"waste_basket","_osm_type":"n","_osm_id":"4806236177"}},{"type":"Feature","geometry":{"type":"Point","coordinates":[-77.3526771,39.6806264]},"properties":{"amenity":"bench","_osm_type":"n","_osm_id":"4806236178"}},{"type":"Feature","geometry":{"type":"Point","coordinates":[-77.3526149,39.6807835]},"properties":{"amenity":"bench","_osm_type":"n","_osm_id":"4806236179"}},{"type":"Feature","geometry":{"type":"Point","coordinates":[-77.3525559,39.680932]},"properties":{"amenity":"bench","_osm_type":"n","_osm_id":"4806236180"}},{"type":"Feature","geometry":{"type":"Point","coordinates":[-77.3513275,39.6814329]},"properties":{"amenity":"bench","_osm_type":"n","_osm_id":"4806267091"}},{"type":"Feature","geometry":{"type":"Point","coordinates":[-77.3512605,39.6814218]},"properties":{"amenity":"bench","_osm_type":"n","_osm_id":"4806267092"}},{"type":"Feature","geometry":{"type":"Point","coordinates":[-77.3516146,39.6813273]},"properties":{"amenity":"bench","_osm_type":"n","_osm_id":"4806267093"}},{"type":"Feature","geometry":{"type":"Point","coordinates":[-77.35153,39.6813138]},"properties":{"amenity":"bench","_osm_type":"n","_osm_id":"4806267094"}},{"type":"Feature","geometry":{"type":"Point","coordinates":[-77.3517847,39.6829171]},"properties":{"amenity":"bench","_osm_type":"n","_osm_id":"4806268238"}},{"type":"Feature","geometry":{"type":"Point","coordinates":[-77.3518095,39.6828702]},"properties":{"amenity":"bench","_osm_type":"n","_osm_id":"4806268239"}},{"type":"Feature","geometry":{"type":"Point","coordinates":[-77.3527537,39.6804438]},"properties":{"amenity":"waste_basket","_osm_type":"n","_osm_id":"4807866571"}},{"type":"Feature","geometry":{"type":"Point","coordinates":[-77.3525742,39.6808756]},"properties":{"amenity":"waste_basket","_osm_type":"n","_osm_id":"4807866573"}},{"type":"Feature","geometry":{"type":"Point","coordinates":[-77.3526372,39.6807175]},"properties":{"amenity":"waste_basket","_osm_type":"n","_osm_id":"4807866574"}},{"type":"Feature","geometry":{"type":"Point","coordinates":[-77.3516935,39.6825305]},"properties":{"amenity":"bench","_osm_type":"n","_osm_id":"4807883092"}},{"type":"Feature","geometry":{"type":"Point","coordinates":[-77.3530295,39.6811028]},"properties":{"amenity":"waste_basket","_osm_type":"n","_osm_id":"4807883095"}},{"type":"Feature","geometry":{"type":"Point","coordinates":[-77.353805,39.6811896]},"properties":{"amenity":"waste_basket","_osm_type":"n","_osm_id":"4808917273"}},{"type":"Feature","geometry":{"type":"Point","coordinates":[-77.354916,39.679823]},"properties":{"amenity":"waste_basket","check_date":"2023-11-10","_osm_type":"n","_osm_id":"4808917306"}},{"type":"Feature","geometry":{"type":"Point","coordinates":[-77.3526028,39.6813373]},"properties":{"amenity":"waste_basket","_osm_type":"n","_osm_id":"4810103408"}},{"type":"Feature","geometry":{"type":"Point","coordinates":[-77.3530435,39.6811645]},"properties":{"amenity":"bench","backrest":"yes","_osm_type":"n","_osm_id":"4810103409"}},{"type":"Feature","geometry":{"type":"Point","coordinates":[-77.3546507,39.6808023]},"properties":{"amenity":"bench","_osm_type":"n","_osm_id":"4810103410"}},{"type":"Feature","geometry":{"type":"Point","coordinates":[-77.3546691,39.6807654]},"properties":{"amenity":"bench","_osm_type":"n","_osm_id":"4810103411"}},{"type":"Feature","geometry":{"type":"Point","coordinates":[-77.3559527,39.6810835]},"properties":{"amenity":"waste_basket","_osm_type":"n","_osm_id":"4810636549"}},{"type":"Feature","geometry":{"type":"Point","coordinates":[-77.3574807,39.6834904]},"properties":{"amenity":"bench","_osm_type":"n","_osm_id":"4810641398"}},{"type":"Feature","geometry":{"type":"Point","coordinates":[-77.357235,39.6836423]},"properties":{"amenity":"bench","_osm_type":"n","_osm_id":"4810641399"}},{"type":"Feature","geometry":{"type":"Point","coordinates":[-77.3555812,39.679979]},"properties":{"amenity":"waste_basket","_osm_type":"n","_osm_id":"4812433042"}},{"type":"Feature","geometry":{"type":"Point","coordinates":[-77.4353032,39.5865717]},"properties":{"amenity":"drinking_water","_osm_type":"n","_osm_id":"5207427788"}},{"type":"Feature","geometry":{"type":"Point","coordinates":[-77.6050173,39.528428]},"properties":{"amenity":"waste_basket","check_date":"2025-04-26","_osm_type":"n","_osm_id":"5526587858"}},{"type":"Feature","geometry":{"type":"Point","coordinates":[-77.6049893,39.5284257]},"properties":{"amenity":"drinking_water","_osm_type":"n","_osm_id":"5526587859"}},{"type":"Feature","geometry":{"type":"Point","coordinates":[-77.6049513,39.5283708]},"properties":{"amenity":"recycling","recycling:cans":"yes","recycling:glass":"yes","recycling:paper":"yes","recycling_type":"container","_osm_type":"n","_osm_id":"5526587860"}},{"type":"Feature","geometry":{"type":"Point","coordinates":[-77.4404872,39.3703703]},"properties":{"amenity":"bench","_osm_type":"n","_osm_id":"5549425552"}},{"type":"Feature","geometry":{"type":"Point","coordinates":[-77.4406307,39.3703765]},"properties":{"amenity":"bench","_osm_type":"n","_osm_id":"5549425553"}},{"type":"Feature","geometry":{"type":"Point","coordinates":[-77.4409989,39.3703247]},"properties":{"amenity":"bench","_osm_type":"n","_osm_id":"5549425554"}},{"type":"Feature","geometry":{"type":"Point","coordinates":[-77.440974,39.3702806]},"properties":{"amenity":"bench","_osm_type":"n","_osm_id":"5549425555"}},{"type":"Feature","geometry":{"type":"Point","coordinates":[-77.4410579,39.3702578]},"properties":{"amenity":"bench","_osm_type":"n","_osm_id":"5549425556"}},{"type":"Feature","geometry":{"type":"Point","coordinates":[-77.4410699,39.3703034]},"properties":{"amenity":"bench","_osm_type":"n","_osm_id":"5549425557"}},{"type":"Feature","geometry":{"type":"Point","coordinates":[-77.3056017,39.3811243]},"properties":{"amenity":"bench","_osm_type":"n","_osm_id":"6077147057"}},{"type":"Feature","geometry":{"type":"Point","coordinates":[-77.6398726,39.4052308]},"properties":{"amenity":"drinking_water","fountain":"drinking","_osm_type":"n","_osm_id":"6492495043"}},{"type":"Feature","geometry":{"type":"Point","coordinates":[-77.4350882,39.5919102]},"properties":{"amenity":"drinking_water","indoor":"no","_osm_type":"n","_osm_id":"7963584039"}},{"type":"Feature","geometry":{"type":"Point","coordinates":[-77.435112,39.5920288]},"properties":{"amenity":"waste_basket","waste":"trash","_osm_type":"n","_osm_id":"7963584040"}},{"type":"Feature","geometry":{"type":"Point","coordinates":[-77.4364266,39.5910969]},"properties":{"amenity":"drinking_water","indoor":"no","_osm_type":"n","_osm_id":"7963611501"}},{"type":"Feature","geometry":{"type":"Point","coordinates":[-77.4368732,39.5923959]},"properties":{"amenity":"drinking_water","indoor":"no","_osm_type":"n","_osm_id":"7963611503"}},{"type":"Feature","geometry":{"type":"Point","coordinates":[-77.4736571,39.6257568]},"properties":{"amenity":"drinking_water","indoor":"no","man_made":"water_tap","_osm_type":"n","_osm_id":"7966290772"}},{"type":"Feature","geometry":{"type":"Point","coordinates":[-77.4740824,39.6253647]},"properties":{"amenity":"drinking_water","indoor":"no","man_made":"water_tap","_osm_type":"n","_osm_id":"7966290773"}},{"type":"Feature","geometry":{"type":"Point","coordinates":[-77.4744324,39.6261966]},"properties":{"amenity":"drinking_water","indoor":"no","man_made":"water_tap","_osm_type":"n","_osm_id":"7966290775"}},{"type":"Feature","geometry":{"type":"Point","coordinates":[-77.4750219,39.6258252]},"properties":{"amenity":"drinking_water","indoor":"no","man_made":"water_tap","_osm_type":"n","_osm_id":"7966290776"}},{"type":"Feature","geometry":{"type":"Point","coordinates":[-77.4955308,39.4635979]},"properties":{"amenity":"drinking_water","_osm_type":"n","_osm_id":"7970224967"}},{"type":"Feature","geometry":{"type":"Point","coordinates":[-77.4949262,39.4637452]},"properties":{"amenity":"bench","backrest":"yes","_osm_type":"n","_osm_id":"7970384705"}},{"type":"Feature","geometry":{"type":"Point","coordinates":[-77.4948626,39.4637771]},"properties":{"amenity":"bench","backrest":"yes","_osm_type":"n","_osm_id":"7970384706"}},{"type":"Feature","geometry":{"type":"Point","coordinates":[-77.628966,39.3134115]},"properties":{"amenity":"bench","_osm_type":"n","_osm_id":"8132001275"}},{"type":"Feature","geometry":{"type":"Point","coordinates":[-77.421692,39.3776207]},"properties":{"amenity":"bench","_osm_type":"n","_osm_id":"8272614347"}},{"type":"Feature","geometry":{"type":"Point","coordinates":[-77.362832,39.479718]},"properties":{"amenity":"drinking_water","_osm_type":"n","_osm_id":"8590135435"}},{"type":"Feature","geometry":{"type":"Point","coordinates":[-77.5388484,39.2742724]},"properties":{"access":"yes","amenity":"drinking_water","operator":"Frederick County Parks & Recreation","_osm_type":"n","_osm_id":"8880493132"}},{"type":"Feature","geometry":{"type":"Point","coordinates":[-77.5391156,39.2742459]},"properties":{"amenity":"bench","backrest":"yes","_osm_type":"n","_osm_id":"8880493133"}},{"type":"Feature","geometry":{"type":"Point","coordinates":[-77.5391022,39.2743103]},"properties":{"amenity":"bench","backrest":"yes","_osm_type":"n","_osm_id":"8880493134"}},{"type":"Feature","geometry":{"type":"Point","coordinates":[-77.5390834,39.2741997]},"properties":{"amenity":"bench","backrest":"yes","_osm_type":"n","_osm_id":"8880493135"}},{"type":"Feature","geometry":{"type":"Point","coordinates":[-77.5390211,39.2742215]},"properties":{"amenity":"bench","backrest":"yes","_osm_type":"n","_osm_id":"8880493136"}},{"type":"Feature","geometry":{"type":"Point","coordinates":[-77.5407625,39.2743066]},"properties":{"access":"yes","amenity":"drinking_water","fountain":"bubbler","operator":"Frederick County Parks & Recreation","_osm_type":"n","_osm_id":"8880493137"}},{"type":"Feature","geometry":{"type":"Point","coordinates":[-77.5390348,39.2741042]},"properties":{"amenity":"bench","backrest":"yes","_osm_type":"n","_osm_id":"8880493138"}},{"type":"Feature","geometry":{"type":"Point","coordinates":[-77.5402086,39.2743976]},"properties":{"amenity":"bench","backrest":"yes","_osm_type":"n","_osm_id":"8880493139"}},{"type":"Feature","geometry":{"type":"Point","coordinates":[-77.5402891,39.2741609]},"properties":{"amenity":"bench","backrest":"yes","_osm_type":"n","_osm_id":"8880493140"}},{"type":"Feature","geometry":{"type":"Point","coordinates":[-77.5401892,39.2741588]},"properties":{"amenity":"bench","backrest":"yes","_osm_type":"n","_osm_id":"8880493141"}},{"type":"Feature","geometry":{"type":"Point","coordinates":[-77.5404473,39.2744168]},"properties":{"amenity":"bench","backrest":"yes","_osm_type":"n","_osm_id":"8880493142"}},{"type":"Feature","geometry":{"type":"Point","coordinates":[-77.539418,39.2743885]},"properties":{"amenity":"bench","backrest":"yes","_osm_type":"n","_osm_id":"8880493143"}},{"type":"Feature","geometry":{"type":"Point","coordinates":[-77.4071568,39.4204267]},"properties":{"amenity":"bench","_osm_type":"n","_osm_id":"9217457026"}},{"type":"Feature","geometry":{"type":"Point","coordinates":[-77.4071568,39.4206701]},"properties":{"amenity":"bench","_osm_type":"n","_osm_id":"9217457027"}},{"type":"Feature","geometry":{"type":"Point","coordinates":[-77.4071346,39.4208183]},"properties":{"amenity":"bench","_osm_type":"n","_osm_id":"9217457028"}},{"type":"Feature","geometry":{"type":"Point","coordinates":[-77.4070709,39.4210591]},"properties":{"amenity":"bench","_osm_type":"n","_osm_id":"9217457029"}},{"type":"Feature","geometry":{"type":"Point","coordinates":[-77.4495784,39.3806318]},"properties":{"access":"yes","amenity":"drinking_water","dog":"yes","_osm_type":"n","_osm_id":"9254709248"}},{"type":"Feature","geometry":{"type":"Point","coordinates":[-77.4217205,39.4151666]},"properties":{"amenity":"bench","_osm_type":"n","_osm_id":"9630290393"}},{"type":"Feature","geometry":{"type":"Point","coordinates":[-77.4224286,39.4155044]},"properties":{"amenity":"bench","_osm_type":"n","_osm_id":"9630290394"}},{"type":"Feature","geometry":{"type":"Point","coordinates":[-77.4221241,39.4152184]},"properties":{"amenity":"bench","_osm_type":"n","_osm_id":"9630290395"}},{"type":"Feature","geometry":{"type":"Point","coordinates":[-77.4219525,39.4151791]},"properties":{"amenity":"bench","_osm_type":"n","_osm_id":"9630290396"}},{"type":"Feature","geometry":{"type":"Point","coordinates":[-77.4198094,39.4157634]},"properties":{"amenity":"bench","_osm_type":"n","_osm_id":"9630290397"}},{"type":"Feature","geometry":{"type":"Point","coordinates":[-77.4198577,39.4158722]},"properties":{"amenity":"bench","_osm_type":"n","_osm_id":"9630290398"}},{"type":"Feature","geometry":{"type":"Point","coordinates":[-77.4199891,39.4156121]},"properties":{"amenity":"bench","_osm_type":"n","_osm_id":"9630290399"}},{"type":"Feature","geometry":{"type":"Point","coordinates":[-77.4205913,39.415322]},"properties":{"amenity":"bench","_osm_type":"n","_osm_id":"9630290400"}},{"type":"Feature","geometry":{"type":"Point","coordinates":[-77.419804,39.4154754]},"properties":{"amenity":"bench","_osm_type":"n","_osm_id":"9630290401"}},{"type":"Feature","geometry":{"type":"Point","coordinates":[-77.4166551,39.4154101]},"properties":{"amenity":"bench","_osm_type":"n","_osm_id":"9630293621"}},{"type":"Feature","geometry":{"type":"Point","coordinates":[-77.417158,39.4153293]},"properties":{"amenity":"bench","_osm_type":"n","_osm_id":"9630293622"}},{"type":"Feature","geometry":{"type":"Point","coordinates":[-77.4193628,39.415579]},"properties":{"amenity":"bench","_osm_type":"n","_osm_id":"9630293623"}},{"type":"Feature","geometry":{"type":"Point","coordinates":[-77.4175389,39.416499]},"properties":{"amenity":"bench","_osm_type":"n","_osm_id":"9630293624"}},{"type":"Feature","geometry":{"type":"Point","coordinates":[-77.4174517,39.4166948]},"properties":{"amenity":"bench","_osm_type":"n","_osm_id":"9630293625"}},{"type":"Feature","geometry":{"type":"Point","coordinates":[-77.4168456,39.4168927]},"properties":{"amenity":"bench","_osm_type":"n","_osm_id":"9630293626"}},{"type":"Feature","geometry":{"type":"Point","coordinates":[-77.4149385,39.416268]},"properties":{"amenity":"bench","backrest":"yes","_osm_type":"n","_osm_id":"9630293655"}},{"type":"Feature","geometry":{"type":"Point","coordinates":[-77.4149506,39.4158857]},"properties":{"amenity":"bench","backrest":"yes","_osm_type":"n","_osm_id":"9630293656"}},{"type":"Feature","geometry":{"type":"Point","coordinates":[-77.4149345,39.4160546]},"properties":{"amenity":"bench","backrest":"yes","_osm_type":"n","_osm_id":"9630293657"}},{"type":"Feature","geometry":{"type":"Point","coordinates":[-77.4147695,39.4158743]},"properties":{"amenity":"bench","backrest":"yes","_osm_type":"n","_osm_id":"9630293658"}},{"type":"Feature","geometry":{"type":"Point","coordinates":[-77.4178916,39.4153635]},"properties":{"amenity":"bench","_osm_type":"n","_osm_id":"9630293713"}},{"type":"Feature","geometry":{"type":"Point","coordinates":[-77.4189766,39.4155842]},"properties":{"amenity":"bench","_osm_type":"n","_osm_id":"9630293714"}},{"type":"Feature","geometry":{"type":"Point","coordinates":[-77.3265436,39.6950755]},"properties":{"amenity":"bench","_osm_type":"n","_osm_id":"9820367401"}},{"type":"Feature","geometry":{"type":"Point","coordinates":[-77.3277627,39.6936176]},"properties":{"amenity":"bench","backrest":"yes","material":"wood","seats":"2","_osm_type":"n","_osm_id":"9820379245"}},{"type":"Feature","geometry":{"type":"Point","coordinates":[-77.6012105,39.5250715]},"properties":{"amenity":"bench","backrest":"yes","check_date":"2026-05-10","leaf_cycle":"deciduous","material":"wood","natural":"tree","_osm_type":"n","_osm_id":"9833616864"}},{"type":"Feature","geometry":{"type":"Point","coordinates":[-77.6009144,39.5248241]},"properties":{"amenity":"bench","backrest":"yes","leaf_cycle":"deciduous","material":"wood","natural":"tree","_osm_type":"n","_osm_id":"9833616865"}},{"type":"Feature","geometry":{"type":"Point","coordinates":[-77.6009398,39.5249276]},"properties":{"amenity":"bench","backrest":"yes","leaf_cycle":"deciduous","material":"wood","natural":"tree","_osm_type":"n","_osm_id":"9833616866"}},{"type":"Feature","geometry":{"type":"Point","coordinates":[-77.6011869,39.5250796]},"properties":{"amenity":"bench","backrest":"yes","leaf_cycle":"deciduous","material":"wood","natural":"tree","_osm_type":"n","_osm_id":"9833616867"}},{"type":"Feature","geometry":{"type":"Point","coordinates":[-77.6005878,39.5247129]},"properties":{"amenity":"bench","backrest":"yes","check_date":"2026-05-10","leaf_cycle":"deciduous","material":"wood","natural":"tree","_osm_type":"n","_osm_id":"9833616868"}},{"type":"Feature","geometry":{"type":"Point","coordinates":[-77.6009047,39.5248417]},"properties":{"amenity":"bench","backrest":"yes","leaf_cycle":"deciduous","material":"wood","natural":"tree","_osm_type":"n","_osm_id":"9833616869"}},{"type":"Feature","geometry":{"type":"Point","coordinates":[-77.6009965,39.5248093]},"properties":{"amenity":"bench","backrest":"yes","leaf_cycle":"deciduous","material":"wood","natural":"tree","_osm_type":"n","_osm_id":"9833616870"}},{"type":"Feature","geometry":{"type":"Point","coordinates":[-77.6006156,39.5247122]},"properties":{"amenity":"bench","backrest":"yes","check_date":"2026-05-10","leaf_cycle":"deciduous","material":"wood","natural":"tree","_osm_type":"n","_osm_id":"9833616871"}},{"type":"Feature","geometry":{"type":"Point","coordinates":[-77.6009914,39.5248298]},"properties":{"amenity":"bench","backrest":"yes","check_date":"2026-05-10","leaf_cycle":"deciduous","material":"wood","natural":"tree","_osm_type":"n","_osm_id":"9833616872"}},{"type":"Feature","geometry":{"type":"Point","coordinates":[-77.6009501,39.5249034]},"properties":{"amenity":"bench","backrest":"yes","check_date":"2026-05-10","leaf_cycle":"deciduous","material":"wood","natural":"tree","_osm_type":"n","_osm_id":"9833616873"}},{"type":"Feature","geometry":{"type":"Point","coordinates":[-77.4144869,39.4171774]},"properties":{"amenity":"drinking_water","_osm_type":"n","_osm_id":"9944916429"}},{"type":"Feature","geometry":{"type":"Point","coordinates":[-77.4148836,39.4127255]},"properties":{"amenity":"drinking_water","_osm_type":"n","_osm_id":"9944970286"}},{"type":"Feature","geometry":{"type":"Point","coordinates":[-77.4148834,39.4138981]},"properties":{"amenity":"waste_basket","_osm_type":"n","_osm_id":"9944973540"}},{"type":"Feature","geometry":{"type":"Point","coordinates":[-77.4145288,39.4131094]},"properties":{"amenity":"waste_basket","_osm_type":"n","_osm_id":"9944986055"}},{"type":"Feature","geometry":{"type":"Point","coordinates":[-77.4354873,39.5887141]},"properties":{"amenity":"waste_basket","waste":"dog_excrement","_osm_type":"n","_osm_id":"10106915327"}},{"type":"Feature","geometry":{"type":"Point","coordinates":[-77.3649918,39.3378793]},"properties":{"amenity":"waste_basket","_osm_type":"n","_osm_id":"10288723085"}},{"type":"Feature","geometry":{"type":"Point","coordinates":[-77.3029487,39.278326]},"properties":{"amenity":"bench","backrest":"yes","_osm_type":"n","_osm_id":"10301299257"}},{"type":"Feature","geometry":{"type":"Point","coordinates":[-77.3552818,39.6813708]},"properties":{"amenity":"bench","_osm_type":"n","_osm_id":"10572708854"}},{"type":"Feature","geometry":{"type":"Point","coordinates":[-77.3552704,39.681406]},"properties":{"amenity":"bench","_osm_type":"n","_osm_id":"10572708855"}},{"type":"Feature","geometry":{"type":"Point","coordinates":[-77.3572851,39.6837421]},"properties":{"amenity":"bench","_osm_type":"n","_osm_id":"10572708859"}},{"type":"Feature","geometry":{"type":"Point","coordinates":[-77.6187882,39.534588]},"properties":{"drinking_water":"yes","man_made":"water_tap","_osm_type":"n","_osm_id":"10679207873"}},{"type":"Feature","geometry":{"type":"Point","coordinates":[-77.62058,39.5355335]},"properties":{"amenity":"bench","backrest":"yes","_osm_type":"n","_osm_id":"10679284657"}},{"type":"Feature","geometry":{"type":"Point","coordinates":[-77.6209551,39.5357838]},"properties":{"amenity":"bench","backrest":"yes","_osm_type":"n","_osm_id":"10679284660"}},{"type":"Feature","geometry":{"type":"Point","coordinates":[-77.6211464,39.536188]},"properties":{"amenity":"bench","backrest":"yes","_osm_type":"n","_osm_id":"10679284661"}},{"type":"Feature","geometry":{"type":"Point","coordinates":[-77.6213881,39.5385524]},"properties":{"amenity":"bench","backrest":"yes","_osm_type":"n","_osm_id":"10679297548"}},{"type":"Feature","geometry":{"type":"Point","coordinates":[-77.621186,39.5394147]},"properties":{"amenity":"bench","backrest":"yes","_osm_type":"n","_osm_id":"10679297549"}},{"type":"Feature","geometry":{"type":"Point","coordinates":[-77.6187733,39.5402854]},"properties":{"amenity":"bench","backrest":"yes","material":"wood","seats":"4","_osm_type":"n","_osm_id":"10679306515"}},{"type":"Feature","geometry":{"type":"Point","coordinates":[-77.6185623,39.5403166]},"properties":{"amenity":"bench","backrest":"yes","material":"wood","seats":"4","_osm_type":"n","_osm_id":"10679306549"}},{"type":"Feature","geometry":{"type":"Point","coordinates":[-77.4122551,39.4627454]},"properties":{"amenity":"waste_basket","_osm_type":"n","_osm_id":"10835467243"}},{"type":"Feature","geometry":{"type":"Point","coordinates":[-77.6817348,39.3291332]},"properties":{"amenity":"bench","armrest":"no","backrest":"yes","_osm_type":"n","_osm_id":"10840000901"}},{"type":"Feature","geometry":{"type":"Point","coordinates":[-77.4234761,39.4031292]},"properties":{"amenity":"bench","_osm_type":"n","_osm_id":"10905874658"}},{"type":"Feature","geometry":{"type":"Point","coordinates":[-77.423057,39.4031648]},"properties":{"access":"yes","amenity":"bench","backrest":"yes","_osm_type":"n","_osm_id":"10905874662"}},{"type":"Feature","geometry":{"type":"Point","coordinates":[-77.4189495,39.4221013]},"properties":{"amenity":"bench","backrest":"yes","_osm_type":"n","_osm_id":"11114860763"}},{"type":"Feature","geometry":{"type":"Point","coordinates":[-77.4198968,39.4209445]},"properties":{"amenity":"bench","backrest":"yes","_osm_type":"n","_osm_id":"11114860764"}},{"type":"Feature","geometry":{"type":"Point","coordinates":[-77.4194203,39.4220882]},"properties":{"amenity":"bench","backrest":"yes","_osm_type":"n","_osm_id":"11114860765"}},{"type":"Feature","geometry":{"type":"Point","coordinates":[-77.4194629,39.4219769]},"properties":{"amenity":"bench","backrest":"yes","_osm_type":"n","_osm_id":"11114860766"}},{"type":"Feature","geometry":{"type":"Point","coordinates":[-77.4198648,39.4209856]},"properties":{"amenity":"bench","backrest":"yes","_osm_type":"n","_osm_id":"11114860767"}},{"type":"Feature","geometry":{"type":"Point","coordinates":[-77.4198355,39.4221732]},"properties":{"amenity":"bench","backrest":"yes","_osm_type":"n","_osm_id":"11114860772"}},{"type":"Feature","geometry":{"type":"Point","coordinates":[-77.4194001,39.4240518]},"properties":{"amenity":"bench","backrest":"yes","_osm_type":"n","_osm_id":"11114860773"}},{"type":"Feature","geometry":{"type":"Point","coordinates":[-77.4192297,39.4241514]},"properties":{"amenity":"bench","backrest":"yes","_osm_type":"n","_osm_id":"11114860778"}},{"type":"Feature","geometry":{"type":"Point","coordinates":[-77.4190088,39.4221168]},"properties":{"amenity":"bench","backrest":"yes","_osm_type":"n","_osm_id":"11114860784"}},{"type":"Feature","geometry":{"type":"Point","coordinates":[-77.4196267,39.4220044]},"properties":{"amenity":"bench","backrest":"yes","_osm_type":"n","_osm_id":"11114860786"}},{"type":"Feature","geometry":{"type":"Point","coordinates":[-77.4196211,39.4220187]},"properties":{"amenity":"bench","backrest":"yes","_osm_type":"n","_osm_id":"11114860789"}},{"type":"Feature","geometry":{"type":"Point","coordinates":[-77.4189307,39.422097]},"properties":{"amenity":"bench","backrest":"yes","_osm_type":"n","_osm_id":"11114860791"}},{"type":"Feature","geometry":{"type":"Point","coordinates":[-77.4195719,39.4239573]},"properties":{"amenity":"bench","backrest":"yes","_osm_type":"n","_osm_id":"11114860792"}},{"type":"Feature","geometry":{"type":"Point","coordinates":[-77.4199483,39.4208655]},"properties":{"amenity":"bench","backrest":"yes","_osm_type":"n","_osm_id":"11114860793"}},{"type":"Feature","geometry":{"type":"Point","coordinates":[-77.4192569,39.4241356]},"properties":{"amenity":"bench","backrest":"yes","_osm_type":"n","_osm_id":"11114860794"}},{"type":"Feature","geometry":{"type":"Point","coordinates":[-77.4198436,39.4209676]},"properties":{"amenity":"bench","backrest":"yes","_osm_type":"n","_osm_id":"11114860795"}},{"type":"Feature","geometry":{"type":"Point","coordinates":[-77.4200352,39.4223111]},"properties":{"amenity":"bench","backrest":"yes","_osm_type":"n","_osm_id":"11114860796"}},{"type":"Feature","geometry":{"type":"Point","coordinates":[-77.4190258,39.4221206]},"properties":{"amenity":"bench","backrest":"yes","_osm_type":"n","_osm_id":"11114860797"}},{"type":"Feature","geometry":{"type":"Point","coordinates":[-77.419879,39.4220677]},"properties":{"amenity":"bench","backrest":"yes","_osm_type":"n","_osm_id":"11114860798"}},{"type":"Feature","geometry":{"type":"Point","coordinates":[-77.4198328,39.422184]},"properties":{"amenity":"bench","backrest":"yes","_osm_type":"n","_osm_id":"11114860799"}},{"type":"Feature","geometry":{"type":"Point","coordinates":[-77.4194236,39.4220795]},"properties":{"amenity":"bench","backrest":"yes","_osm_type":"n","_osm_id":"11114860800"}},{"type":"Feature","geometry":{"type":"Point","coordinates":[-77.4196172,39.4239308]},"properties":{"amenity":"bench","backrest":"yes","_osm_type":"n","_osm_id":"11114860801"}},{"type":"Feature","geometry":{"type":"Point","coordinates":[-77.4195752,39.4221272]},"properties":{"amenity":"bench","backrest":"yes","_osm_type":"n","_osm_id":"11114860802"}},{"type":"Feature","geometry":{"type":"Point","coordinates":[-77.4194311,39.4240347]},"properties":{"amenity":"bench","backrest":"yes","_osm_type":"n","_osm_id":"11114860803"}},{"type":"Feature","geometry":{"type":"Point","coordinates":[-77.4198911,39.4209823]},"properties":{"amenity":"bench","backrest":"yes","_osm_type":"n","_osm_id":"11114860804"}},{"type":"Feature","geometry":{"type":"Point","coordinates":[-77.4187253,39.4245877]},"properties":{"amenity":"bench","backrest":"yes","_osm_type":"n","_osm_id":"11114860886"}},{"type":"Feature","geometry":{"type":"Point","coordinates":[-77.418654,39.4245687]},"properties":{"amenity":"bench","backrest":"yes","_osm_type":"n","_osm_id":"11114860887"}},{"type":"Feature","geometry":{"type":"Point","coordinates":[-77.4174766,39.4240271]},"properties":{"amenity":"bench","backrest":"yes","_osm_type":"n","_osm_id":"11114868516"}},{"type":"Feature","geometry":{"type":"Point","coordinates":[-77.4176064,39.4239663]},"properties":{"amenity":"bench","backrest":"yes","_osm_type":"n","_osm_id":"11114868517"}},{"type":"Feature","geometry":{"type":"Point","coordinates":[-77.4197703,39.4238419]},"properties":{"amenity":"bench","backrest":"yes","_osm_type":"n","_osm_id":"11114868519"}},{"type":"Feature","geometry":{"type":"Point","coordinates":[-77.419946,39.4237395]},"properties":{"amenity":"bench","backrest":"yes","_osm_type":"n","_osm_id":"11114868524"}},{"type":"Feature","geometry":{"type":"Point","coordinates":[-77.4197432,39.4238579]},"properties":{"amenity":"bench","backrest":"yes","_osm_type":"n","_osm_id":"11114868526"}},{"type":"Feature","geometry":{"type":"Point","coordinates":[-77.4174956,39.4239359]},"properties":{"amenity":"bench","backrest":"yes","_osm_type":"n","_osm_id":"11114868528"}},{"type":"Feature","geometry":{"type":"Point","coordinates":[-77.4169819,39.424146]},"properties":{"amenity":"bench","backrest":"yes","_osm_type":"n","_osm_id":"11114868530"}},{"type":"Feature","geometry":{"type":"Point","coordinates":[-77.4175411,39.4240411]},"properties":{"amenity":"bench","backrest":"yes","_osm_type":"n","_osm_id":"11114868531"}},{"type":"Feature","geometry":{"type":"Point","coordinates":[-77.416992,39.4241236]},"properties":{"amenity":"bench","backrest":"yes","_osm_type":"n","_osm_id":"11114868532"}},{"type":"Feature","geometry":{"type":"Point","coordinates":[-77.4199122,39.4237593]},"properties":{"amenity":"bench","backrest":"yes","_osm_type":"n","_osm_id":"11114868535"}},{"type":"Feature","geometry":{"type":"Point","coordinates":[-77.4199026,39.4209654]},"properties":{"amenity":"bench","backrest":"yes","_osm_type":"n","_osm_id":"11114869505"}},{"type":"Feature","geometry":{"type":"Point","coordinates":[-77.4198666,39.4220967]},"properties":{"amenity":"bench","backrest":"yes","_osm_type":"n","_osm_id":"11114869506"}},{"type":"Feature","geometry":{"type":"Point","coordinates":[-77.4199993,39.4207632]},"properties":{"amenity":"bench","backrest":"yes","_osm_type":"n","_osm_id":"11114869507"}},{"type":"Feature","geometry":{"type":"Point","coordinates":[-77.4195808,39.4221154]},"properties":{"amenity":"bench","backrest":"yes","_osm_type":"n","_osm_id":"11114869508"}},{"type":"Feature","geometry":{"type":"Point","coordinates":[-77.4200516,39.4223013]},"properties":{"amenity":"bench","backrest":"yes","_osm_type":"n","_osm_id":"11114869510"}},{"type":"Feature","geometry":{"type":"Point","coordinates":[-77.4194664,39.4219689]},"properties":{"amenity":"bench","backrest":"yes","_osm_type":"n","_osm_id":"11114869511"}},{"type":"Feature","geometry":{"type":"Point","coordinates":[-77.6234791,39.4991275]},"properties":{"amenity":"drinking_water","_osm_type":"n","_osm_id":"11137294705"}},{"type":"Feature","geometry":{"type":"Point","coordinates":[-77.3185671,39.7068652]},"properties":{"amenity":"bench","backrest":"yes","_osm_type":"n","_osm_id":"11196745643"}},{"type":"Feature","geometry":{"type":"Point","coordinates":[-77.4216551,39.3776159]},"properties":{"amenity":"bicycle_repair_station","service:bicycle:pump":"yes","_osm_type":"n","_osm_id":"11636096360"}},{"type":"Feature","geometry":{"type":"Point","coordinates":[-77.4627409,39.6272976]},"properties":{"access":"yes","amenity":"drinking_water","bottle":"no","covered":"no","fee":"no","fountain":"bubbler","_osm_type":"n","_osm_id":"12103196097"}},{"type":"Feature","geometry":{"type":"Point","coordinates":[-77.4624491,39.6273115]},"properties":{"amenity":"waste_basket","material":"concrete","waste":"hot_coals","_osm_type":"n","_osm_id":"12103292790"}},{"type":"Feature","geometry":{"type":"Point","coordinates":[-77.6173505,39.5400731]},"properties":{"amenity":"bench","backrest":"yes","material":"wood","seats":"4","_osm_type":"n","_osm_id":"12118649611"}},{"type":"Feature","geometry":{"type":"Point","coordinates":[-77.4329772,39.6264858]},"properties":{"amenity":"bench","backrest":"no","_osm_type":"n","_osm_id":"12133027050"}},{"type":"Feature","geometry":{"type":"Point","coordinates":[-77.4334078,39.62968]},"properties":{"amenity":"bench","backrest":"no","_osm_type":"n","_osm_id":"12133027056"}},{"type":"Feature","geometry":{"type":"Point","coordinates":[-77.6308125,39.4621044]},"properties":{"amenity":"bench","backrest":"no","_osm_type":"n","_osm_id":"12247314261"}},{"type":"Feature","geometry":{"type":"Point","coordinates":[-77.6316429,39.461951]},"properties":{"amenity":"bench","_osm_type":"n","_osm_id":"12248418369"}},{"type":"Feature","geometry":{"type":"Point","coordinates":[-77.631607,39.4620516]},"properties":{"amenity":"bench","_osm_type":"n","_osm_id":"12248426189"}},{"type":"Feature","geometry":{"type":"Point","coordinates":[-77.6314469,39.4619848]},"properties":{"amenity":"bench","_osm_type":"n","_osm_id":"12248429304"}},{"type":"Feature","geometry":{"type":"Point","coordinates":[-77.4627392,39.6272926]},"properties":{"amenity":"drinking_water","_osm_type":"n","_osm_id":"12323565465"}},{"type":"Feature","geometry":{"type":"Point","coordinates":[-77.4045019,39.4127858]},"properties":{"amenity":"bench","armrest":"yes","backrest":"yes","_osm_type":"n","_osm_id":"12648480622"}},{"type":"Feature","geometry":{"type":"Point","coordinates":[-77.4091669,39.412953]},"properties":{"drinking_water":"yes","man_made":"water_tap","_osm_type":"n","_osm_id":"12648480623"}},{"type":"Feature","geometry":{"type":"Point","coordinates":[-77.4035704,39.4128433]},"properties":{"amenity":"bench","armrest":"yes","backrest":"yes","_osm_type":"n","_osm_id":"12648480624"}},{"type":"Feature","geometry":{"type":"Point","coordinates":[-77.4038944,39.4128354]},"properties":{"amenity":"bench","armrest":"yes","backrest":"yes","_osm_type":"n","_osm_id":"12648480625"}},{"type":"Feature","geometry":{"type":"Point","coordinates":[-77.4106728,39.4127454]},"properties":{"amenity":"bench","armrest":"yes","backrest":"yes","_osm_type":"n","_osm_id":"12648480626"}},{"type":"Feature","geometry":{"type":"Point","coordinates":[-77.4044688,39.4129488]},"properties":{"amenity":"bench","armrest":"yes","backrest":"yes","_osm_type":"n","_osm_id":"12648480627"}},{"type":"Feature","geometry":{"type":"Point","coordinates":[-77.4076355,39.4125961]},"properties":{"amenity":"bench","armrest":"yes","backrest":"yes","_osm_type":"n","_osm_id":"12648480629"}},{"type":"Feature","geometry":{"type":"Point","coordinates":[-77.4074871,39.412528]},"properties":{"amenity":"bench","armrest":"yes","backrest":"yes","_osm_type":"n","_osm_id":"12648480630"}},{"type":"Feature","geometry":{"type":"Point","coordinates":[-77.4108801,39.4127219]},"properties":{"amenity":"bench","armrest":"yes","backrest":"yes","_osm_type":"n","_osm_id":"12648480632"}},{"type":"Feature","geometry":{"type":"Point","coordinates":[-77.4062457,39.4124795]},"properties":{"amenity":"bench","armrest":"yes","backrest":"yes","_osm_type":"n","_osm_id":"12648480633"}},{"type":"Feature","geometry":{"type":"Point","coordinates":[-77.4038987,39.4127631]},"properties":{"amenity":"bench","armrest":"yes","backrest":"yes","_osm_type":"n","_osm_id":"12648480634"}},{"type":"Feature","geometry":{"type":"Point","coordinates":[-77.4108783,39.4127399]},"properties":{"amenity":"bench","armrest":"yes","backrest":"yes","_osm_type":"n","_osm_id":"12648480636"}},{"type":"Feature","geometry":{"type":"Point","coordinates":[-77.4097609,39.4129031]},"properties":{"amenity":"bench","armrest":"yes","backrest":"yes","_osm_type":"n","_osm_id":"12648480637"}},{"type":"Feature","geometry":{"type":"Point","coordinates":[-77.4087238,39.4128394]},"properties":{"amenity":"bench","armrest":"yes","backrest":"yes","_osm_type":"n","_osm_id":"12648480639"}},{"type":"Feature","geometry":{"type":"Point","coordinates":[-77.4038279,39.4128356]},"properties":{"amenity":"bench","armrest":"yes","backrest":"yes","_osm_type":"n","_osm_id":"12648480641"}},{"type":"Feature","geometry":{"type":"Point","coordinates":[-77.4051446,39.4129192]},"properties":{"amenity":"bench","armrest":"yes","backrest":"yes","_osm_type":"n","_osm_id":"12648480644"}},{"type":"Feature","geometry":{"type":"Point","coordinates":[-77.4076328,39.4125364]},"properties":{"amenity":"bench","armrest":"yes","backrest":"yes","_osm_type":"n","_osm_id":"12648480645"}},{"type":"Feature","geometry":{"type":"Point","coordinates":[-77.4038605,39.4128344]},"properties":{"amenity":"bench","armrest":"yes","backrest":"yes","_osm_type":"n","_osm_id":"12648480646"}},{"type":"Feature","geometry":{"type":"Point","coordinates":[-77.4044488,39.4128137]},"properties":{"amenity":"bench","armrest":"yes","backrest":"yes","_osm_type":"n","_osm_id":"12648480647"}},{"type":"Feature","geometry":{"type":"Point","coordinates":[-77.408757,39.4128421]},"properties":{"amenity":"bench","armrest":"yes","backrest":"yes","_osm_type":"n","_osm_id":"12648480649"}},{"type":"Feature","geometry":{"type":"Point","coordinates":[-77.4038698,39.412763]},"properties":{"amenity":"bench","armrest":"yes","backrest":"yes","_osm_type":"n","_osm_id":"12648480651"}},{"type":"Feature","geometry":{"type":"Point","coordinates":[-77.4125636,39.4124843]},"properties":{"amenity":"bench","armrest":"yes","backrest":"yes","_osm_type":"n","_osm_id":"12648480652"}},{"type":"Feature","geometry":{"type":"Point","coordinates":[-77.4101804,39.4128927]},"properties":{"amenity":"bench","armrest":"yes","backrest":"yes","_osm_type":"n","_osm_id":"12648480653"}},{"type":"Feature","geometry":{"type":"Point","coordinates":[-77.4095872,39.4126188]},"properties":{"amenity":"bench","armrest":"yes","backrest":"yes","_osm_type":"n","_osm_id":"12648480654"}},{"type":"Feature","geometry":{"type":"Point","coordinates":[-77.4076586,39.4126122]},"properties":{"amenity":"bench","armrest":"yes","backrest":"yes","_osm_type":"n","_osm_id":"12648480656"}},{"type":"Feature","geometry":{"type":"Point","coordinates":[-77.4041039,39.4128214]},"properties":{"amenity":"bench","armrest":"yes","backrest":"yes","_osm_type":"n","_osm_id":"12648480657"}},{"type":"Feature","geometry":{"type":"Point","coordinates":[-77.4089054,39.4128391]},"properties":{"amenity":"bench","armrest":"yes","backrest":"yes","_osm_type":"n","_osm_id":"12648480659"}},{"type":"Feature","geometry":{"type":"Point","coordinates":[-77.4088723,39.4128409]},"properties":{"amenity":"bench","armrest":"yes","backrest":"yes","_osm_type":"n","_osm_id":"12648480660"}},{"type":"Feature","geometry":{"type":"Point","coordinates":[-77.4051761,39.4129144]},"properties":{"amenity":"bench","armrest":"yes","backrest":"yes","_osm_type":"n","_osm_id":"12648480664"}},{"type":"Feature","geometry":{"type":"Point","coordinates":[-77.4099234,39.4129077]},"properties":{"amenity":"bench","armrest":"yes","backrest":"yes","_osm_type":"n","_osm_id":"12648480665"}},{"type":"Feature","geometry":{"type":"Point","coordinates":[-77.4117743,39.4125558]},"properties":{"amenity":"bench","armrest":"yes","backrest":"yes","_osm_type":"n","_osm_id":"12648480666"}},{"type":"Feature","geometry":{"type":"Point","coordinates":[-77.4066643,39.4125805]},"properties":{"amenity":"bench","armrest":"yes","backrest":"yes","_osm_type":"n","_osm_id":"12648480667"}},{"type":"Feature","geometry":{"type":"Point","coordinates":[-77.4120571,39.4127165]},"properties":{"amenity":"bench","armrest":"yes","backrest":"yes","_osm_type":"n","_osm_id":"12648480668"}},{"type":"Feature","geometry":{"type":"Point","coordinates":[-77.4036033,39.4128428]},"properties":{"amenity":"bench","armrest":"yes","backrest":"yes","_osm_type":"n","_osm_id":"12648480669"}},{"type":"Feature","geometry":{"type":"Point","coordinates":[-77.4093852,39.4128614]},"properties":{"amenity":"bench","armrest":"yes","backrest":"yes","_osm_type":"n","_osm_id":"12648480670"}},{"type":"Feature","geometry":{"type":"Point","coordinates":[-77.4119491,39.4125395]},"properties":{"amenity":"bench","armrest":"yes","backrest":"yes","_osm_type":"n","_osm_id":"12648480671"}},{"type":"Feature","geometry":{"type":"Point","coordinates":[-77.4062747,39.4124674]},"properties":{"amenity":"bench","armrest":"yes","backrest":"yes","_osm_type":"n","_osm_id":"12648480673"}},{"type":"Feature","geometry":{"type":"Point","coordinates":[-77.4062059,39.4125937]},"properties":{"amenity":"bench","armrest":"yes","backrest":"yes","_osm_type":"n","_osm_id":"12648480675"}},{"type":"Feature","geometry":{"type":"Point","coordinates":[-77.408785,39.4128423]},"properties":{"amenity":"bench","armrest":"yes","backrest":"yes","_osm_type":"n","_osm_id":"12648480676"}},{"type":"Feature","geometry":{"type":"Point","coordinates":[-77.4052044,39.4129084]},"properties":{"amenity":"bench","armrest":"yes","backrest":"yes","_osm_type":"n","_osm_id":"12648480677"}},{"type":"Feature","geometry":{"type":"Point","coordinates":[-77.4086687,39.4128334]},"properties":{"amenity":"bench","armrest":"yes","backrest":"yes","_osm_type":"n","_osm_id":"12648480678"}},{"type":"Feature","geometry":{"type":"Point","coordinates":[-77.4048818,39.4126717]},"properties":{"amenity":"bench","armrest":"yes","backrest":"yes","_osm_type":"n","_osm_id":"12648480679"}},{"type":"Feature","geometry":{"type":"Point","coordinates":[-77.4076042,39.4125345]},"properties":{"amenity":"bench","armrest":"yes","backrest":"yes","_osm_type":"n","_osm_id":"12648480681"}},{"type":"Feature","geometry":{"type":"Point","coordinates":[-77.4097236,39.4126541]},"properties":{"amenity":"bench","armrest":"yes","backrest":"yes","_osm_type":"n","_osm_id":"12648480682"}},{"type":"Feature","geometry":{"type":"Point","coordinates":[-77.4095818,39.4128739]},"properties":{"amenity":"bench","armrest":"yes","backrest":"yes","_osm_type":"n","_osm_id":"12648480685"}},{"type":"Feature","geometry":{"type":"Point","coordinates":[-77.4044237,39.4129467]},"properties":{"amenity":"bench","armrest":"yes","backrest":"yes","_osm_type":"n","_osm_id":"12648480686"}},{"type":"Feature","geometry":{"type":"Point","coordinates":[-77.4097262,39.4126279]},"properties":{"amenity":"bench","armrest":"yes","backrest":"yes","_osm_type":"n","_osm_id":"12648480688"}},{"type":"Feature","geometry":{"type":"Point","coordinates":[-77.4048516,39.4126744]},"properties":{"amenity":"bench","armrest":"yes","backrest":"yes","_osm_type":"n","_osm_id":"12648480690"}},{"type":"Feature","geometry":{"type":"Point","coordinates":[-77.4046402,39.4129718]},"properties":{"amenity":"bench","armrest":"yes","backrest":"yes","_osm_type":"n","_osm_id":"12648480692"}},{"type":"Feature","geometry":{"type":"Point","coordinates":[-77.4070497,39.4127899]},"properties":{"amenity":"bench","armrest":"yes","backrest":"yes","_osm_type":"n","_osm_id":"12648480693"}},{"type":"Feature","geometry":{"type":"Point","coordinates":[-77.4125964,39.4125068]},"properties":{"amenity":"bench","armrest":"yes","backrest":"yes","_osm_type":"n","_osm_id":"12648480695"}},{"type":"Feature","geometry":{"type":"Point","coordinates":[-77.4036378,39.4128421]},"properties":{"amenity":"bench","armrest":"yes","backrest":"yes","_osm_type":"n","_osm_id":"12648480696"}},{"type":"Feature","geometry":{"type":"Point","coordinates":[-77.4070791,39.4127908]},"properties":{"amenity":"bench","armrest":"yes","backrest":"yes","_osm_type":"n","_osm_id":"12648480698"}},{"type":"Feature","geometry":{"type":"Point","coordinates":[-77.4095852,39.4126478]},"properties":{"amenity":"bench","armrest":"yes","backrest":"yes","_osm_type":"n","_osm_id":"12648480699"}},{"type":"Feature","geometry":{"type":"Point","coordinates":[-77.4044046,39.4127822]},"properties":{"amenity":"bench","armrest":"yes","backrest":"yes","_osm_type":"n","_osm_id":"12648480700"}},{"type":"Feature","geometry":{"type":"Point","coordinates":[-77.4120831,39.4127133]},"properties":{"amenity":"bench","armrest":"yes","backrest":"yes","_osm_type":"n","_osm_id":"12648549602"}},{"type":"Feature","geometry":{"type":"Point","coordinates":[-77.410128,39.4126722]},"properties":{"amenity":"bench","armrest":"yes","backrest":"yes","_osm_type":"n","_osm_id":"12648549605"}},{"type":"Feature","geometry":{"type":"Point","coordinates":[-77.4113575,39.4126386]},"properties":{"amenity":"bench","armrest":"yes","backrest":"yes","_osm_type":"n","_osm_id":"12648549606"}},{"type":"Feature","geometry":{"type":"Point","coordinates":[-77.4106425,39.4127014]},"properties":{"amenity":"bench","armrest":"yes","backrest":"yes","_osm_type":"n","_osm_id":"12648549607"}},{"type":"Feature","geometry":{"type":"Point","coordinates":[-77.4049117,39.4126732]},"properties":{"amenity":"bench","armrest":"yes","backrest":"yes","_osm_type":"n","_osm_id":"12648549608"}},{"type":"Feature","geometry":{"type":"Point","coordinates":[-77.4064205,39.4127644]},"properties":{"amenity":"bench","armrest":"yes","backrest":"yes","_osm_type":"n","_osm_id":"12648549611"}},{"type":"Feature","geometry":{"type":"Point","coordinates":[-77.4101295,39.412649]},"properties":{"amenity":"bench","armrest":"yes","backrest":"yes","_osm_type":"n","_osm_id":"12648549612"}},{"type":"Feature","geometry":{"type":"Point","coordinates":[-77.4106737,39.4127246]},"properties":{"amenity":"bench","armrest":"yes","backrest":"yes","_osm_type":"n","_osm_id":"12648549613"}},{"type":"Feature","geometry":{"type":"Point","coordinates":[-77.4062128,39.4125698]},"properties":{"amenity":"bench","armrest":"yes","backrest":"yes","_osm_type":"n","_osm_id":"12648549614"}},{"type":"Feature","geometry":{"type":"Point","coordinates":[-77.4066481,39.4125603]},"properties":{"amenity":"bench","armrest":"yes","backrest":"yes","_osm_type":"n","_osm_id":"12648549615"}},{"type":"Feature","geometry":{"type":"Point","coordinates":[-77.406388,39.4127605]},"properties":{"amenity":"bench","armrest":"yes","backrest":"yes","_osm_type":"n","_osm_id":"12648549616"}},{"type":"Feature","geometry":{"type":"Point","coordinates":[-77.4125764,39.4127408]},"properties":{"amenity":"bench","armrest":"yes","backrest":"yes","_osm_type":"n","_osm_id":"12648549617"}},{"type":"Feature","geometry":{"type":"Point","coordinates":[-77.4086393,39.4128297]},"properties":{"amenity":"bench","armrest":"yes","backrest":"yes","_osm_type":"n","_osm_id":"12648549619"}},{"type":"Feature","geometry":{"type":"Point","coordinates":[-77.4125954,39.4125281]},"properties":{"amenity":"bench","armrest":"yes","backrest":"yes","_osm_type":"n","_osm_id":"12648549620"}},{"type":"Feature","geometry":{"type":"Point","coordinates":[-77.4117933,39.4125542]},"properties":{"drinking_water":"yes","man_made":"water_tap","_osm_type":"n","_osm_id":"12648549621"}},{"type":"Feature","geometry":{"type":"Point","coordinates":[-77.4066449,39.4124668]},"properties":{"amenity":"bench","armrest":"yes","backrest":"yes","_osm_type":"n","_osm_id":"12648549623"}},{"type":"Feature","geometry":{"type":"Point","coordinates":[-77.4125782,39.4127182]},"properties":{"amenity":"bench","armrest":"yes","backrest":"yes","_osm_type":"n","_osm_id":"12648549625"}},{"type":"Feature","geometry":{"type":"Point","coordinates":[-77.4094284,39.4126722]},"properties":{"amenity":"bench","armrest":"yes","backrest":"yes","_osm_type":"n","_osm_id":"12648549628"}},{"type":"Feature","geometry":{"type":"Point","coordinates":[-77.4106005,39.4126992]},"properties":{"amenity":"bench","armrest":"yes","backrest":"yes","_osm_type":"n","_osm_id":"12648549629"}},{"type":"Feature","geometry":{"type":"Point","coordinates":[-77.4064554,39.4127633]},"properties":{"amenity":"bench","armrest":"yes","backrest":"yes","_osm_type":"n","_osm_id":"12648549630"}},{"type":"Feature","geometry":{"type":"Point","coordinates":[-77.4099918,39.4126519]},"properties":{"amenity":"bench","armrest":"yes","backrest":"yes","_osm_type":"n","_osm_id":"12648549631"}},{"type":"Feature","geometry":{"type":"Point","coordinates":[-77.406613,39.4124612]},"properties":{"amenity":"bench","armrest":"yes","backrest":"yes","_osm_type":"n","_osm_id":"12648549632"}},{"type":"Feature","geometry":{"type":"Point","coordinates":[-77.4115927,39.4125912]},"properties":{"amenity":"bench","armrest":"yes","backrest":"yes","_osm_type":"n","_osm_id":"12648549633"}},{"type":"Feature","geometry":{"type":"Point","coordinates":[-77.4096712,39.4128764]},"properties":{"amenity":"bench","armrest":"yes","backrest":"yes","_osm_type":"n","_osm_id":"12648549635"}},{"type":"Feature","geometry":{"type":"Point","coordinates":[-77.4062165,39.4124921]},"properties":{"amenity":"bench","armrest":"yes","backrest":"yes","_osm_type":"n","_osm_id":"12648549636"}},{"type":"Feature","geometry":{"type":"Point","coordinates":[-77.4100358,39.4128916]},"properties":{"amenity":"bench","armrest":"yes","backrest":"yes","_osm_type":"n","_osm_id":"12648549638"}},{"type":"Feature","geometry":{"type":"Point","coordinates":[-77.4085268,39.412451]},"properties":{"amenity":"bench","armrest":"yes","backrest":"yes","_osm_type":"n","_osm_id":"12648549639"}},{"type":"Feature","geometry":{"type":"Point","coordinates":[-77.4105618,39.412697]},"properties":{"amenity":"bench","armrest":"yes","backrest":"yes","_osm_type":"n","_osm_id":"12648549640"}},{"type":"Feature","geometry":{"type":"Point","coordinates":[-77.4101372,39.4128932]},"properties":{"amenity":"bench","armrest":"yes","backrest":"yes","_osm_type":"n","_osm_id":"12648549641"}},{"type":"Feature","geometry":{"type":"Point","coordinates":[-77.4064843,39.4127573]},"properties":{"amenity":"bench","armrest":"yes","backrest":"yes","_osm_type":"n","_osm_id":"12648549642"}},{"type":"Feature","geometry":{"type":"Point","coordinates":[-77.4065809,39.4124554]},"properties":{"amenity":"bench","armrest":"yes","backrest":"yes","_osm_type":"n","_osm_id":"12648549645"}},{"type":"Feature","geometry":{"type":"Point","coordinates":[-77.4017521,39.5166281]},"properties":{"amenity":"bench","_osm_type":"n","_osm_id":"13161251736"}},{"type":"Feature","geometry":{"type":"Point","coordinates":[-77.4017743,39.5166039]},"properties":{"amenity":"bench","_osm_type":"n","_osm_id":"13161251737"}},{"type":"Feature","geometry":{"type":"Point","coordinates":[-77.4104579,39.4616706]},"properties":{"amenity":"waste_basket","covered":"yes","_osm_type":"n","_osm_id":"13335036847"}},{"type":"Feature","geometry":{"type":"Point","coordinates":[-77.6396316,39.3368139]},"properties":{"amenity":"waste_basket","colour":"brown","material":"metal","operator":"Sheetz","_osm_type":"n","_osm_id":"13380656827"}},{"type":"Feature","geometry":{"type":"Point","coordinates":[-77.6396612,39.3369331]},"properties":{"amenity":"waste_basket","colour":"brown","material":"metal","operator":"Sheetz","_osm_type":"n","_osm_id":"13380656828"}},{"type":"Feature","geometry":{"type":"Point","coordinates":[-77.6399832,39.3368164]},"properties":{"amenity":"waste_basket","colour":"brown","material":"metal","operator":"Sheetz","_osm_type":"n","_osm_id":"13380656829"}},{"type":"Feature","geometry":{"type":"Point","coordinates":[-77.6398255,39.3368719]},"properties":{"amenity":"waste_basket","colour":"brown","material":"metal","operator":"Sheetz","_osm_type":"n","_osm_id":"13380656830"}},{"type":"Feature","geometry":{"type":"Point","coordinates":[-77.6398921,39.3366597]},"properties":{"amenity":"waste_basket","colour":"brown","direction":"155","drive_through":"yes","material":"plastic","operator":"Sheetz","_osm_type":"n","_osm_id":"13380656834"}},{"type":"Feature","geometry":{"type":"Point","coordinates":[-77.6399433,39.3367129]},"properties":{"amenity":"waste_basket","colour":"brown","material":"metal","operator":"Sheetz","_osm_type":"n","_osm_id":"13380656835"}},{"type":"Feature","geometry":{"type":"Point","coordinates":[-77.6402518,39.3376395]},"properties":{"amenity":"waste_basket","colour":"brown","material":"plastic","operator":"McDonald's","_osm_type":"n","_osm_id":"13384323000"}},{"type":"Feature","geometry":{"type":"Point","coordinates":[-77.6403848,39.3373032]},"properties":{"amenity":"waste_basket","colour":"brown","material":"plastic","operator":"McDonald's","_osm_type":"n","_osm_id":"13384323001"}},{"type":"Feature","geometry":{"type":"Point","coordinates":[-77.6406413,39.3372467]},"properties":{"amenity":"waste_basket","colour":"brown","material":"plastic","operator":"McDonald's","_osm_type":"n","_osm_id":"13384323002"}},{"type":"Feature","geometry":{"type":"Point","coordinates":[-77.6403817,39.3373942]},"properties":{"amenity":"waste_basket","colour":"brown","material":"plastic","operator":"McDonald's","_osm_type":"n","_osm_id":"13384323003"}},{"type":"Feature","geometry":{"type":"Point","coordinates":[-77.6403968,39.3374732]},"properties":{"amenity":"waste_basket","colour":"brown","material":"plastic","operator":"McDonald's","_osm_type":"n","_osm_id":"13384323004"}},{"type":"Feature","geometry":{"type":"Point","coordinates":[-77.6408184,39.3374097]},"properties":{"amenity":"waste_basket","colour":"brown","material":"plastic","operator":"McDonald's","_osm_type":"n","_osm_id":"13384323008"}},{"type":"Feature","geometry":{"type":"Point","coordinates":[-77.6407823,39.3373743]},"properties":{"amenity":"waste_basket","colour":"brown","material":"plastic","operator":"McDonald's","_osm_type":"n","_osm_id":"13384323009"}},{"type":"Feature","geometry":{"type":"Point","coordinates":[-77.6409025,39.3374806]},"properties":{"amenity":"waste_basket","colour":"brown","material":"plastic","operator":"McDonald's","_osm_type":"n","_osm_id":"13384323010"}},{"type":"Feature","geometry":{"type":"Point","coordinates":[-77.640483,39.3378693]},"properties":{"amenity":"waste_basket","colour":"brown","material":"plastic","operator":"McDonald's","_osm_type":"n","_osm_id":"13384323011"}},{"type":"Feature","geometry":{"type":"Point","coordinates":[-77.6411727,39.335527]},"properties":{"amenity":"waste_basket","_osm_type":"n","_osm_id":"13389693749"}},{"type":"Feature","geometry":{"type":"Point","coordinates":[-77.6411123,39.3355223]},"properties":{"amenity":"bench","armrest":"yes","backrest":"yes","direction":"225","seats":"3","_osm_type":"n","_osm_id":"13389693750"}},{"type":"Feature","geometry":{"type":"Point","coordinates":[-77.6411847,39.3354655]},"properties":{"amenity":"bench","armrest":"yes","backrest":"yes","direction":"45","seats":"3","_osm_type":"n","_osm_id":"13389693751"}},{"type":"Feature","geometry":{"type":"Point","coordinates":[-77.641355,39.3357435]},"properties":{"amenity":"bench","armrest":"yes","backrest":"yes","direction":"45","seats":"3","_osm_type":"n","_osm_id":"13389693768"}},{"type":"Feature","geometry":{"type":"Point","coordinates":[-77.6413554,39.3357879]},"properties":{"amenity":"bench","armrest":"yes","backrest":"yes","direction":"135","seats":"3","_osm_type":"n","_osm_id":"13389693769"}},{"type":"Feature","geometry":{"type":"Point","coordinates":[-77.6416654,39.3357747]},"properties":{"amenity":"bench","armrest":"yes","backrest":"yes","covered":"yes","direction":"180","seats":"3","_osm_type":"n","_osm_id":"13389693778"}},{"type":"Feature","geometry":{"type":"Point","coordinates":[-77.6414707,39.3357449]},"properties":{"amenity":"bench","armrest":"yes","backrest":"yes","covered":"yes","direction":"225","seats":"3","_osm_type":"n","_osm_id":"13389693780"}},{"type":"Feature","geometry":{"type":"Point","coordinates":[-77.6414502,39.3357194]},"properties":{"amenity":"waste_basket","_osm_type":"n","_osm_id":"13389693787"}},{"type":"Feature","geometry":{"type":"Point","coordinates":[-77.6413786,39.335633]},"properties":{"amenity":"bench","armrest":"yes","backrest":"yes","covered":"yes","direction":"215","seats":"3","_osm_type":"n","_osm_id":"13389693788"}},{"type":"Feature","geometry":{"type":"Point","coordinates":[-77.6413362,39.3355408]},"properties":{"amenity":"bench","armrest":"yes","backrest":"yes","covered":"yes","direction":"275","seats":"3","_osm_type":"n","_osm_id":"13389693789"}},{"type":"Feature","geometry":{"type":"Point","coordinates":[-77.6432873,39.3342226]},"properties":{"amenity":"bench","armrest":"yes","backrest":"yes","direction":"90","seats":"3","_osm_type":"n","_osm_id":"13395953826"}},{"type":"Feature","geometry":{"type":"Point","coordinates":[-77.6432673,39.3342394]},"properties":{"amenity":"bench","armrest":"yes","backrest":"yes","direction":"180","seats":"3","_osm_type":"n","_osm_id":"13395953827"}},{"type":"Feature","geometry":{"type":"Point","coordinates":[-77.6432469,39.3341944]},"properties":{"amenity":"bench","armrest":"yes","backrest":"yes","direction":"0","seats":"3","_osm_type":"n","_osm_id":"13395953828"}},{"type":"Feature","geometry":{"type":"Point","coordinates":[-77.6432255,39.3342086]},"properties":{"amenity":"bench","armrest":"yes","backrest":"yes","direction":"270","seats":"3","_osm_type":"n","_osm_id":"13395953829"}},{"type":"Feature","geometry":{"type":"Point","coordinates":[-77.6645817,39.3276464]},"properties":{"amenity":"bench","armrest":"yes","backrest":"yes","direction":"220","seats":"3","_osm_type":"n","_osm_id":"13409913357"}},{"type":"Feature","geometry":{"type":"Point","coordinates":[-77.6645719,39.3276394]},"properties":{"amenity":"waste_basket","_osm_type":"n","_osm_id":"13409913363"}},{"type":"Feature","geometry":{"type":"Point","coordinates":[-77.4945862,39.4585939]},"properties":{"drinking_water":"yes","man_made":"water_tap","_osm_type":"n","_osm_id":"13539259743"}},{"type":"Feature","geometry":{"type":"Point","coordinates":[-77.6043515,39.3134564]},"properties":{"amenity":"bicycle_repair_station","_osm_type":"n","_osm_id":"13788505377"}},{"type":"Feature","geometry":{"type":"Point","coordinates":[-77.6086879,39.3095301]},"properties":{"amenity":"bicycle_repair_station","_osm_type":"n","_osm_id":"13788505386"}},{"type":"Feature","geometry":{"type":"Point","coordinates":[-77.4739098,39.6236858]},"properties":{"amenity":"water_point","drinking_water":"yes","fee":"no","_osm_type":"n","_osm_id":"13950990514"}},{"type":"Feature","geometry":{"type":"Point","coordinates":[-77.4748555,39.6239196]},"properties":{"amenity":"water_point","drinking_water":"yes","_osm_type":"n","_osm_id":"13954131581"}},{"type":"Feature","geometry":{"type":"Point","coordinates":[-77.4740822,39.6241365]},"properties":{"amenity":"water_point","drinking_water":"yes","_osm_type":"n","_osm_id":"13954131582"}},{"type":"Feature","geometry":{"type":"Point","coordinates":[-77.4746137,39.6234402]},"properties":{"amenity":"water_point","drinking_water":"yes","_osm_type":"n","_osm_id":"13954131583"}},{"type":"Feature","geometry":{"type":"Point","coordinates":[-77.6204322,39.5339862]},"properties":{"amenity":"toilets","building":"yes","drinking_water":"yes","fee":"no","shower":"hot","_osm_type":"w","_osm_id":"169024833"}},{"type":"Feature","geometry":{"type":"Point","coordinates":[-77.4001321,39.428882]},"properties":{"access":"yes","amenity":"toilets","building":"yes","drinking_water":"yes","fee":"no","toilets:disposal":"flush","_osm_type":"w","_osm_id":"311940756"}},{"type":"Feature","geometry":{"type":"Point","coordinates":[-77.3371289,39.3258674]},"properties":{"amenity":"bench","_osm_type":"w","_osm_id":"367517810"}},{"type":"Feature","geometry":{"type":"Point","coordinates":[-77.3371325,39.3256313]},"properties":{"amenity":"bench","_osm_type":"w","_osm_id":"367517811"}},{"type":"Feature","geometry":{"type":"Point","coordinates":[-77.335864,39.325795]},"properties":{"amenity":"bench","_osm_type":"w","_osm_id":"367517812"}},{"type":"Feature","geometry":{"type":"Point","coordinates":[-77.3371296,39.325984]},"properties":{"amenity":"bench","_osm_type":"w","_osm_id":"367517813"}},{"type":"Feature","geometry":{"type":"Point","coordinates":[-77.337131,39.325749]},"properties":{"amenity":"bench","_osm_type":"w","_osm_id":"367517814"}},{"type":"Feature","geometry":{"type":"Point","coordinates":[-77.6244559,39.4990537]},"properties":{"access":"yes","amenity":"toilets","building":"yes","drinking_water":"yes","female":"yes","male":"yes","toilets:disposal":"flush","toilets:position":"seated;urinal","_osm_type":"w","_osm_id":"416594275"}},{"type":"Feature","geometry":{"type":"Point","coordinates":[-77.4366519,39.5916341]},"properties":{"access":"customers","amenity":"toilets","building":"toilets","building:levels":"1","drinking_water":"yes","fee":"no","female":"yes","male":"yes","shower":"yes","toilets:disposal":"flush","toilets:position":"seated;urinal","wheelchair":"yes","_osm_type":"w","_osm_id":"420401999"}},{"type":"Feature","geometry":{"type":"Point","coordinates":[-77.5972201,39.5578656]},"properties":{"access":"yes","backcountry":"yes","caravans":"no","check_date":"2023-06-18","drinking_water":"yes","fee":"no","group_only":"no","internet_access":"no","name":"Annapolis Rock AT Camping Area","nudism":"no","openfire":"no","opening_hours":"24/7","operator":"Potomac Appalachian Trail Club","payment:cards":"no","payment:credit_cards":"no","payment:debit_cards":"no","picnic_table":"no","power_supply":"no","reservation":"no","sanitary_dump_station":"no","shower":"no","static_caravans":"no","tents":"yes","toilets":"yes","tourism":"camp_site","wheelchair":"no","_osm_type":"w","_osm_id":"421886446"}},{"type":"Feature","geometry":{"type":"Point","coordinates":[-77.3465739,39.6802868]},"properties":{"amenity":"bench","_osm_type":"w","_osm_id":"488503016"}},{"type":"Feature","geometry":{"type":"Point","coordinates":[-77.6193748,39.4814487]},"properties":{"access":"yes","amenity":"toilets","building":"yes","drinking_water":"yes","fee":"no","toilets:disposal":"flush","toilets:position":"seated;urinal;showers","unisex":"yes","wheelchair":"no","_osm_type":"w","_osm_id":"489105304"}},{"type":"Feature","geometry":{"type":"Point","coordinates":[-77.630635,39.4618089]},"properties":{"access":"yes","backcountry":"yes","caravans":"no","drinking_water":"yes","fee":"no","name":"Rocky Run Shelters","opening_hours":"24/7","operator":"Potomac Appalachian Trail Club","power_supply":"no","reservation":"no","shower":"no","static_caravans":"no","tents":"yes","toilets":"yes","tourism":"camp_site","wheelchair":"no","_osm_type":"w","_osm_id":"917629002"}},{"type":"Feature","geometry":{"type":"Point","coordinates":[-77.1570712,39.3791479]},"properties":{"amenity":"recycling","building":"roof","recycling:engine_oil":"yes","recycling_type":"centre","_osm_type":"w","_osm_id":"1328636818"}}]}