{"type":"FeatureCollection","id":"great-frederick-fair-2026-grounds-map","reviewedOn":"2026-09-02","source":{"publisher":"OpenStreetMap contributors","url":"https://www.openstreetmap.org/copyright","license":"ODbL 1.0","snapshotSha256":"6481e958886043485d1d5cd6270e2fa75ac5b8633f58844b40c61f7cdf96358b"},"features":[{"type":"Feature","geometry":{"type":"Point","coordinates":[-77.3944867,39.4107704]},"properties":{"id":"osm-node-14099608925","name":"Gate 1","kind":"gate","sourceUrl":"https://www.openstreetmap.org/node/14099608925","sourceUpdatedAt":"2026-08-16T19:12:58Z","scheduleAliases":[],"anchor":[-77.3944867,39.4107704]}},{"type":"Feature","geometry":{"type":"Point","coordinates":[-77.3937711,39.4104143]},"properties":{"id":"osm-node-14099608928","name":"Life Member Gate","kind":"gate","sourceUrl":"https://www.openstreetmap.org/node/14099608928","sourceUpdatedAt":"2026-08-16T19:12:58Z","scheduleAliases":[],"anchor":[-77.3937711,39.4104143]}},{"type":"Feature","geometry":{"type":"Point","coordinates":[-77.3932807,39.4102946]},"properties":{"id":"osm-node-14099608931","name":"Gate 2","kind":"gate","sourceUrl":"https://www.openstreetmap.org/node/14099608931","sourceUpdatedAt":"2026-08-16T19:12:58Z","scheduleAliases":[],"anchor":[-77.3932807,39.4102946]}},{"type":"Feature","geometry":{"type":"Point","coordinates":[-77.3919113,39.4117788]},"properties":{"id":"osm-node-14099608935","name":"Gate 3","kind":"gate","sourceUrl":"https://www.openstreetmap.org/node/14099608935","sourceUpdatedAt":"2026-08-16T19:12:58Z","scheduleAliases":[],"anchor":[-77.3919113,39.4117788]}},{"type":"Feature","geometry":{"type":"Point","coordinates":[-77.3924879,39.4131454]},"properties":{"id":"osm-node-14099608937","name":"Gate 4","kind":"gate","sourceUrl":"https://www.openstreetmap.org/node/14099608937","sourceUpdatedAt":"2026-08-16T19:12:58Z","scheduleAliases":[],"anchor":[-77.3924879,39.4131454]}},{"type":"Feature","geometry":{"type":"Point","coordinates":[-77.3936558,39.4137365]},"properties":{"id":"osm-node-14099608940","name":"Gate 4A","kind":"gate","sourceUrl":"https://www.openstreetmap.org/node/14099608940","sourceUpdatedAt":"2026-08-16T19:12:58Z","scheduleAliases":[],"anchor":[-77.3936558,39.4137365]}},{"type":"Feature","geometry":{"type":"Point","coordinates":[-77.3953841,39.4146087]},"properties":{"id":"osm-node-14099608957","name":"Gate 5","kind":"gate","sourceUrl":"https://www.openstreetmap.org/node/14099608957","sourceUpdatedAt":"2026-08-16T19:12:58Z","scheduleAliases":[],"anchor":[-77.3953841,39.4146087]}},{"type":"Feature","geometry":{"type":"Point","coordinates":[-77.3934684,39.4109779]},"properties":{"id":"osm-node-14099608982","name":"Restroom","kind":"restroom","sourceUrl":"https://www.openstreetmap.org/node/14099608982","sourceUpdatedAt":"2026-08-16T19:12:58Z","scheduleAliases":[],"anchor":[-77.3934684,39.4109779]}},{"type":"Feature","geometry":{"type":"Point","coordinates":[-77.3984792,39.4128579]},"properties":{"id":"osm-node-3124269595","name":"Gate 6","kind":"gate","sourceUrl":"https://www.openstreetmap.org/node/3124269595","sourceUpdatedAt":"2026-08-16T19:12:58Z","scheduleAliases":[],"anchor":[-77.3984792,39.4128579]}},{"type":"Feature","geometry":{"type":"Polygon","coordinates":[[[-77.3954564,39.4121051],[-77.3946517,39.4117901],[-77.3942601,39.411786],[-77.3942601,39.4116865],[-77.3946249,39.4116906],[-77.3947912,39.4116989],[-77.3955261,39.4120098],[-77.3954564,39.4121051]]]},"properties":{"id":"osm-way-103615596","name":"Grandstand","kind":"stage","sourceUrl":"https://www.openstreetmap.org/way/103615596","sourceUpdatedAt":"2014-09-26T04:58:18Z","scheduleAliases":["grandstand"],"anchor":[-77.3947957857143,39.411823857142856]}},{"type":"Feature","geometry":{"type":"Polygon","coordinates":[[[-77.3964433,39.4124962],[-77.3963997,39.412545],[-77.3962368,39.4124718],[-77.3962761,39.4124253],[-77.3964433,39.4124962]]]},"properties":{"id":"osm-way-103615600","name":"Restroom","kind":"restroom","sourceUrl":"https://www.openstreetmap.org/way/103615600","sourceUpdatedAt":"2026-08-16T19:12:58Z","scheduleAliases":[],"anchor":[-77.39633897499999,39.412484575]}},{"type":"Feature","geometry":{"type":"Polygon","coordinates":[[[-77.394515,39.4111185],[-77.3941652,39.4116126],[-77.3939751,39.4115172],[-77.3940811,39.4113734],[-77.3940889,39.4113629],[-77.3942154,39.4111914],[-77.3943267,39.4110403],[-77.394515,39.4111185]]]},"properties":{"id":"osm-way-103615601","name":"Building 9","kind":"building","sourceUrl":"https://www.openstreetmap.org/way/103615601","sourceUpdatedAt":"2026-08-16T19:12:58Z","scheduleAliases":[],"anchor":[-77.39419534285715,39.41131661428572]}},{"type":"Feature","geometry":{"type":"Polygon","coordinates":[[[-77.391291,39.4125245],[-77.3933069,39.4101944],[-77.3950336,39.4110611],[-77.3950955,39.4110973],[-77.398595,39.4128911],[-77.3974161,39.414513],[-77.3971049,39.4144136],[-77.3965189,39.4152037],[-77.3950177,39.4144343],[-77.3938837,39.4138553],[-77.3936716,39.4137446],[-77.3936558,39.4137365],[-77.3936365,39.4137266],[-77.391291,39.4125245]]]},"properties":{"id":"osm-way-106918950","name":"Frederick Fairgrounds","kind":"fairgrounds","sourceUrl":"https://www.openstreetmap.org/way/106918950","sourceUpdatedAt":"2026-08-16T19:12:58Z","scheduleAliases":[],"anchor":[-77.39494055384617,39.41318430769232]}},{"type":"Feature","geometry":{"type":"Polygon","coordinates":[[[-77.3964618,39.4142878],[-77.3962703,39.4142059],[-77.3961304,39.4144009],[-77.396322,39.4144829],[-77.3964618,39.4142878]]]},"properties":{"id":"osm-way-1548624421","name":"Small Livestock Show Arena","kind":"animal","sourceUrl":"https://www.openstreetmap.org/way/1548624421","sourceUpdatedAt":"2026-08-10T15:21:53Z","scheduleAliases":["bldg. 28","building 28","small livestock arena","farmer's cooperative small livestock arena"],"anchor":[-77.39629612499999,39.414344375]}},{"type":"Feature","geometry":{"type":"Polygon","coordinates":[[[-77.3952644,39.4109803],[-77.3945978,39.4106366],[-77.3945574,39.4106076],[-77.3945303,39.4105643],[-77.3945298,39.4105278],[-77.39456,39.4104514],[-77.394587,39.4104],[-77.394866,39.4100383],[-77.3949296,39.4099596],[-77.3951545,39.4096921],[-77.3955989,39.4091659],[-77.3965223,39.4096271],[-77.3960665,39.4100995],[-77.3961796,39.4101506],[-77.3958241,39.4105958],[-77.3957597,39.4105533],[-77.3957202,39.4105533],[-77.3956819,39.410577],[-77.395591,39.4106893],[-77.395509,39.41072],[-77.3954464,39.41075],[-77.3952644,39.4109803]]]},"properties":{"id":"osm-way-1550204781","name":"Great Frederick Fair Lot A","kind":"parking","sourceUrl":"https://www.openstreetmap.org/way/1550204781","sourceUpdatedAt":"2026-08-16T19:12:58Z","scheduleAliases":[],"anchor":[-77.3953084,39.4103495142857]}},{"type":"Feature","geometry":{"type":"Polygon","coordinates":[[[-77.3956965,39.41383],[-77.3958491,39.4138476],[-77.395943,39.413822],[-77.3960135,39.4137506],[-77.3960445,39.4136714],[-77.3960358,39.4135863],[-77.3959735,39.4135068],[-77.3954021,39.4132711],[-77.3952321,39.413227],[-77.3950537,39.4132251],[-77.3949665,39.4132641],[-77.3949252,39.4133325],[-77.3949144,39.4134136],[-77.3949488,39.4134806],[-77.3950077,39.4135378],[-77.395063,39.4135798],[-77.3956965,39.41383]]]},"properties":{"id":"osm-way-1550204782","name":"Pleasants' Horse Park","kind":"animal","sourceUrl":"https://www.openstreetmap.org/way/1550204782","sourceUpdatedAt":"2026-08-16T19:12:58Z","scheduleAliases":["infield","pleasants' horse park","pleasants’ horse park","outdoor equine arena","horse expo tent"],"anchor":[-77.3954418375,39.413521643749995]}},{"type":"Feature","geometry":{"type":"Polygon","coordinates":[[[-77.393681,39.4137036],[-77.3936984,39.4137131],[-77.3937148,39.4136952],[-77.3936974,39.4136857],[-77.393681,39.4137036]]]},"properties":{"id":"osm-way-1550204790","name":"Ticket booth","kind":"ticket","sourceUrl":"https://www.openstreetmap.org/way/1550204790","sourceUpdatedAt":"2026-08-16T19:12:58Z","scheduleAliases":[],"anchor":[-77.3936979,39.4136994]}},{"type":"Feature","geometry":{"type":"Polygon","coordinates":[[[-77.3936611,39.4136947],[-77.3936786,39.413676],[-77.3936604,39.4136659],[-77.393643,39.4136846],[-77.3936611,39.4136947]]]},"properties":{"id":"osm-way-1550204791","name":"Ticket booth","kind":"ticket","sourceUrl":"https://www.openstreetmap.org/way/1550204791","sourceUpdatedAt":"2026-08-16T19:12:58Z","scheduleAliases":[],"anchor":[-77.393660775,39.4136803]}},{"type":"Feature","geometry":{"type":"Polygon","coordinates":[[[-77.3940889,39.4113629],[-77.3940344,39.4113421],[-77.3940821,39.4112779],[-77.3940721,39.4112744],[-77.3941056,39.4112275],[-77.394115,39.4112314],[-77.3941634,39.4111668],[-77.3942154,39.4111914],[-77.3940889,39.4113629]]]},"properties":{"id":"osm-way-1550204795","name":"Restroom","kind":"restroom","sourceUrl":"https://www.openstreetmap.org/way/1550204795","sourceUpdatedAt":"2026-08-16T19:12:58Z","scheduleAliases":[],"anchor":[-77.3941096125,39.4112593]}},{"type":"Feature","geometry":{"type":"Polygon","coordinates":[[[-77.3939751,39.4115172],[-77.3939367,39.4115026],[-77.3939343,39.4114864],[-77.3940298,39.4113497],[-77.3940811,39.4113734],[-77.3939751,39.4115172]]]},"properties":{"id":"osm-way-1550204796","name":"Building 10","kind":"building","sourceUrl":"https://www.openstreetmap.org/way/1550204796","sourceUpdatedAt":"2026-08-16T19:12:58Z","scheduleAliases":[],"anchor":[-77.3939914,39.41144586]}},{"type":"Feature","geometry":{"type":"Polygon","coordinates":[[[-77.3944506,39.4138963],[-77.3944795,39.4139093],[-77.3944996,39.4138829],[-77.3944725,39.413869],[-77.3944506,39.4138963]]]},"properties":{"id":"osm-way-1550204797","name":"Tack Room","kind":"animal","sourceUrl":"https://www.openstreetmap.org/way/1550204797","sourceUpdatedAt":"2026-08-16T19:12:58Z","scheduleAliases":[],"anchor":[-77.39447555000001,39.413889375000004]}},{"type":"Feature","geometry":{"type":"Polygon","coordinates":[[[-77.3955447,39.4114737],[-77.3956027,39.4114096],[-77.3954504,39.4113286],[-77.3953958,39.4113942],[-77.3954302,39.4114134],[-77.3954055,39.4114467],[-77.3954811,39.4114793],[-77.3955008,39.4114535],[-77.3955447,39.4114737]]]},"properties":{"id":"osm-way-305093779","name":"Administration","kind":"building","sourceUrl":"https://www.openstreetmap.org/way/305093779","sourceUpdatedAt":"2026-08-16T19:12:58Z","scheduleAliases":[],"anchor":[-77.3954764,39.411424874999994]}},{"type":"Feature","geometry":{"type":"Polygon","coordinates":[[[-77.3950742,39.4112058],[-77.3949071,39.4111181],[-77.3949532,39.4110712],[-77.3950031,39.411094],[-77.3950336,39.4110611],[-77.3950955,39.4110973],[-77.3950711,39.4111218],[-77.3951197,39.4111492],[-77.3950742,39.4112058]]]},"properties":{"id":"osm-way-305093780","name":"Restroom","kind":"restroom","sourceUrl":"https://www.openstreetmap.org/way/305093780","sourceUpdatedAt":"2026-08-16T19:12:58Z","scheduleAliases":[],"anchor":[-77.39503218750001,39.411114812499996]}},{"type":"Feature","geometry":{"type":"Polygon","coordinates":[[[-77.3956412,39.4121862],[-77.3956781,39.4121344],[-77.3955637,39.4120858],[-77.3955299,39.4121423],[-77.3956412,39.4121862]]]},"properties":{"id":"osm-way-305093781","name":"Restroom","kind":"restroom","sourceUrl":"https://www.openstreetmap.org/way/305093781","sourceUpdatedAt":"2026-08-16T19:12:58Z","scheduleAliases":[],"anchor":[-77.395603225,39.412137175]}},{"type":"Feature","geometry":{"type":"Polygon","coordinates":[[[-77.3958315,39.4141085],[-77.3956722,39.4140754],[-77.3956952,39.4140108],[-77.3958565,39.4140453],[-77.3958315,39.4141085]]]},"properties":{"id":"osm-way-307321830","name":"Restroom","kind":"restroom","sourceUrl":"https://www.openstreetmap.org/way/307321830","sourceUpdatedAt":"2026-08-16T19:12:58Z","scheduleAliases":[],"anchor":[-77.39576385000001,39.41406]}},{"type":"Feature","geometry":{"type":"Polygon","coordinates":[[[-77.3934191,39.4116782],[-77.3933074,39.4118237],[-77.3929394,39.4116589],[-77.3930446,39.4115106],[-77.3934191,39.4116782]]]},"properties":{"id":"osm-way-307321832","name":"Farm & Garden","kind":"building","sourceUrl":"https://www.openstreetmap.org/way/307321832","sourceUpdatedAt":"2026-08-16T19:12:58Z","scheduleAliases":["bldg. 14a","building 14a","farm and garden"],"anchor":[-77.39317762499999,39.41166785]}},{"type":"Feature","geometry":{"type":"Polygon","coordinates":[[[-77.3927043,39.41231],[-77.3926262,39.4124004],[-77.392546,39.4124951],[-77.3923875,39.4124178],[-77.3925434,39.4122278],[-77.3927043,39.41231]]]},"properties":{"id":"osm-way-307321833","name":"Beef Barn","kind":"animal","sourceUrl":"https://www.openstreetmap.org/way/307321833","sourceUpdatedAt":"2026-08-16T19:12:58Z","scheduleAliases":[],"anchor":[-77.39256148,39.41237022]}},{"type":"Feature","geometry":{"type":"Polygon","coordinates":[[[-77.3968118,39.4145527],[-77.3964282,39.4143973],[-77.3964926,39.4142979],[-77.3968762,39.4144699],[-77.3968118,39.4145527]]]},"properties":{"id":"osm-way-307321834","name":"Sheep and Goat","kind":"animal","sourceUrl":"https://www.openstreetmap.org/way/307321834","sourceUpdatedAt":"2026-08-16T19:12:58Z","scheduleAliases":[],"anchor":[-77.3966522,39.41442945]}},{"type":"Feature","geometry":{"type":"Polygon","coordinates":[[[-77.3948329,39.4122316],[-77.3945762,39.4121267],[-77.3946459,39.4120252],[-77.3949042,39.4121274],[-77.3948329,39.4122316]]]},"properties":{"id":"osm-way-307321838","name":"Stage","kind":"stage","sourceUrl":"https://www.openstreetmap.org/way/307321838","sourceUpdatedAt":"2026-08-16T19:12:58Z","scheduleAliases":[],"anchor":[-77.3947398,39.412127725000005]}},{"type":"Feature","geometry":{"type":"Polygon","coordinates":[[[-77.3938394,39.4113008],[-77.3939527,39.4111473],[-77.393477,39.4109376],[-77.3933637,39.4110911],[-77.3938394,39.4113008]]]},"properties":{"id":"osm-way-307321839","name":"4-H Building","kind":"building","sourceUrl":"https://www.openstreetmap.org/way/307321839","sourceUpdatedAt":"2026-08-16T19:12:58Z","scheduleAliases":["bldg. 12","building 12"],"anchor":[-77.3936582,39.4111192]}},{"type":"Feature","geometry":{"type":"Polygon","coordinates":[[[-77.3971507,39.4138461],[-77.3971004,39.4137793],[-77.3969343,39.4138539],[-77.3969989,39.4139399],[-77.3970554,39.4139145],[-77.397041,39.4138954],[-77.3971507,39.4138461]]]},"properties":{"id":"osm-way-307321840","name":"Milking Parlor","kind":"animal","sourceUrl":"https://www.openstreetmap.org/way/307321840","sourceUpdatedAt":"2026-08-16T19:12:58Z","scheduleAliases":[],"anchor":[-77.39704678333332,39.41387151666667]}},{"type":"Feature","geometry":{"type":"Polygon","coordinates":[[[-77.3965957,39.4148463],[-77.3962094,39.414695],[-77.3962738,39.4146101],[-77.3960726,39.4145127],[-77.3961343,39.4144215],[-77.3963383,39.4145085],[-77.3964008,39.4144278],[-77.3967888,39.4145935],[-77.3965957,39.4148463]]]},"properties":{"id":"osm-way-307321841","name":"Sheep and Goat","kind":"animal","sourceUrl":"https://www.openstreetmap.org/way/307321841","sourceUpdatedAt":"2026-08-16T19:12:58Z","scheduleAliases":[],"anchor":[-77.3963517125,39.414576925000006]}},{"type":"Feature","geometry":{"type":"Polygon","coordinates":[[[-77.3929829,39.4124385],[-77.3928105,39.4123546],[-77.3928512,39.4123023],[-77.392801,39.4122839],[-77.3927729,39.4122656],[-77.3927272,39.4123134],[-77.392752,39.4123289],[-77.3927405,39.4123584],[-77.3925962,39.4125379],[-77.3924883,39.4126661],[-77.3922559,39.4129374],[-77.3924263,39.4130213],[-77.3926599,39.4127376],[-77.3927001,39.4127574],[-77.3927806,39.412662],[-77.3927422,39.4126438],[-77.3928526,39.4125094],[-77.3929048,39.4125317],[-77.3929829,39.4124385]]]},"properties":{"id":"osm-way-307321842","name":"Beef Barn","kind":"animal","sourceUrl":"https://www.openstreetmap.org/way/307321842","sourceUpdatedAt":"2026-08-16T19:12:58Z","scheduleAliases":["bldg. 18","building 18","south side tire & auto show arena","south side tire & auto beef show arena"],"anchor":[-77.39271361666665,39.41253612222222]}},{"type":"Feature","geometry":{"type":"Polygon","coordinates":[[[-77.3969735,39.4144284],[-77.3969056,39.4144008],[-77.3969411,39.4143564],[-77.3970047,39.4143848],[-77.3969735,39.4144284]]]},"properties":{"id":"osm-way-307321843","name":"Dairy Office","kind":"animal","sourceUrl":"https://www.openstreetmap.org/way/307321843","sourceUpdatedAt":"2026-08-16T19:12:58Z","scheduleAliases":[],"anchor":[-77.396956225,39.4143926]}},{"type":"Feature","geometry":{"type":"Polygon","coordinates":[[[-77.3964379,39.4149909],[-77.3956413,39.4145847],[-77.3957164,39.4144998],[-77.3965162,39.4149042],[-77.3964379,39.4149909]]]},"properties":{"id":"osm-way-307321844","name":"Swine Show Area","kind":"animal","sourceUrl":"https://www.openstreetmap.org/way/307321844","sourceUpdatedAt":"2026-08-16T19:12:58Z","scheduleAliases":[],"anchor":[-77.39607794999999,39.4147449]}},{"type":"Feature","geometry":{"type":"Polygon","coordinates":[[[-77.3950536,39.4143926],[-77.3950177,39.4144343],[-77.3938837,39.4138553],[-77.3939181,39.4138138],[-77.3950536,39.4143926]]]},"properties":{"id":"osm-way-307321845","name":"Horse Barns","kind":"animal","sourceUrl":"https://www.openstreetmap.org/way/307321845","sourceUpdatedAt":"2026-08-16T19:12:58Z","scheduleAliases":["horse barns","bldg. 23","building 23"],"anchor":[-77.394468275,39.414124]}},{"type":"Feature","geometry":{"type":"Polygon","coordinates":[[[-77.3954752,39.4141321],[-77.3952215,39.4140223],[-77.3953277,39.4138835],[-77.3955795,39.4139898],[-77.3954752,39.4141321]]]},"properties":{"id":"osm-way-307321846","name":"City Streets Country Roads","kind":"building","sourceUrl":"https://www.openstreetmap.org/way/307321846","sourceUpdatedAt":"2026-08-16T19:12:58Z","scheduleAliases":["bldg. 44","building 44","city streets country roads"],"anchor":[-77.395400975,39.414006925]}},{"type":"Feature","geometry":{"type":"Polygon","coordinates":[[[-77.3965839,39.415012],[-77.396541,39.4149975],[-77.3966322,39.4148773],[-77.3966755,39.4148921],[-77.3965839,39.415012]]]},"properties":{"id":"osm-way-307321847","name":"Middletown Valley Bank Arena","kind":"animal","sourceUrl":"https://www.openstreetmap.org/way/307321847","sourceUpdatedAt":"2014-10-11T16:11:35Z","scheduleAliases":["bldg. 25","building 25","middletown valley bank arena"],"anchor":[-77.39660815,39.414944725]}},{"type":"Feature","geometry":{"type":"Polygon","coordinates":[[[-77.3935263,39.4115232],[-77.393432,39.4116486],[-77.3930634,39.4114831],[-77.3931576,39.4113578],[-77.3935263,39.4115232]]]},"properties":{"id":"osm-way-307321848","name":"Poultry & Rabbits","kind":"animal","sourceUrl":"https://www.openstreetmap.org/way/307321848","sourceUpdatedAt":"2026-08-16T19:12:58Z","scheduleAliases":["bldg. 14","building 14","poultry and rabbits"],"anchor":[-77.393294825,39.411503175]}},{"type":"Feature","geometry":{"type":"Polygon","coordinates":[[[-77.3970837,39.4139999],[-77.3969333,39.4139342],[-77.396676,39.4142778],[-77.3968423,39.4143483],[-77.3970837,39.4139999]]]},"properties":{"id":"osm-way-307321849","name":"Large Livestock Show Arena","kind":"animal","sourceUrl":"https://www.openstreetmap.org/way/307321849","sourceUpdatedAt":"2026-08-16T19:12:58Z","scheduleAliases":["bldg. 32","building 32","south mt. creamery large arena","large livestock show arena"],"anchor":[-77.396883825,39.41414005]}},{"type":"Feature","geometry":{"type":"Polygon","coordinates":[[[-77.3931553,39.4120952],[-77.3931123,39.4121445],[-77.3929983,39.4120852],[-77.3930413,39.4120359],[-77.3931553,39.4120952]]]},"properties":{"id":"osm-way-307321850","name":"Restroom","kind":"restroom","sourceUrl":"https://www.openstreetmap.org/way/307321850","sourceUpdatedAt":"2026-08-16T19:12:58Z","scheduleAliases":[],"anchor":[-77.3930768,39.4120902]}},{"type":"Feature","geometry":{"type":"Polygon","coordinates":[[[-77.3963964,39.4151122],[-77.3961523,39.4149982],[-77.3962059,39.4149381],[-77.3964473,39.4150583],[-77.3963964,39.4151122]]]},"properties":{"id":"osm-way-307321852","name":"Swine Show Area","kind":"animal","sourceUrl":"https://www.openstreetmap.org/way/307321852","sourceUpdatedAt":"2026-08-16T19:12:58Z","scheduleAliases":[],"anchor":[-77.396300475,39.4150267]}},{"type":"Feature","geometry":{"type":"Polygon","coordinates":[[[-77.3935513,39.4114887],[-77.3931885,39.4113224],[-77.3932765,39.4112077],[-77.3936393,39.4113741],[-77.3935513,39.4114887]]]},"properties":{"id":"osm-way-307321854","name":"Commercial Building","kind":"building","sourceUrl":"https://www.openstreetmap.org/way/307321854","sourceUpdatedAt":"2026-08-16T19:12:58Z","scheduleAliases":["bldg. 13","building 13"],"anchor":[-77.3934139,39.411348225]}},{"type":"Feature","geometry":{"type":"Polygon","coordinates":[[[-77.39774,39.413893],[-77.3973644,39.4144338],[-77.3969702,39.4142536],[-77.3973644,39.4137231],[-77.39774,39.413893]]]},"properties":{"id":"osm-way-307321855","name":"Dairy Barns","kind":"animal","sourceUrl":"https://www.openstreetmap.org/way/307321855","sourceUpdatedAt":"2026-08-16T19:12:58Z","scheduleAliases":[],"anchor":[-77.39735975,39.414075875]}}]}
